nom;details;adresse;ville;longitude;latitude
CREPERIE LE GALLO;Restaurant de spécialités;21 rue de Dinan;35400 St Malo;-2.0266072;48.6466316
CREPERIE LE MARCHE;Restaurant de spécialités;4 Place du Marché aux Legumes;35400 ST MALO;-2.026186;48.6486808
CREPERIE LE MOLE;Restaurant de spécialités;3 Rue de Dinan;35400 ST MALO;-2.0262826;48.6464627
CREPERIE LE MOULIN DU MONT;Restaurant traditionnel;11 Lieu Dit le Tertre;35120 MONT DOL;-1.7691514;48.5731482
CREPERIE LE P'TIT CRABE;Restaurant de spécialités;1 rue Gouin de Beauchesne;35400 St Malo;-2.026297;48.6489943
CREPERIE LE PETIT MALOUIN;Restaurant de spécialités;6 rue de la Vieille Boucherie;35400 St Malo;-2.0255639;48.64858
CREPERIE LE PRESSOIR;Restaurant de spécialités;16 place de l Eglise;35850 Romille;-1.8913936;48.2156779
CREPERIE LE QUATRIÈME;Restaurant de spécialités;2 RUE DE SAINT OUEN;35460 ST BRICE EN COGLES;-1.3652685;48.411693
CREPERIE LE RAOUL II;Restaurant traditionnel;3 place raoul II;35300 FOUGERES;-1.2085727459996;48.354754912
CREPERIE LE RELAIS DES ONDES;Snack (sur place);30 Rue du Bord de Mer;35114 ST BENOIT DES ONDES;-1.8513597;48.6199294
CREPERIE LE RELAIS DES PRINCES;Restaurant de spécialités;11 rue des Princes;35270 Combourg;-1.7522472;48.4085813
CREPERIE LE ROUABLE D'OR;Restaurant de spécialités;57 AVENUE DE LA LIBERATION;35380 PLELAN LE GRAND;-2.0980906815165;48.001969739108
CREPERIE LE SAINT CORNELY;Restaurant de spécialités;53 boulevard de la Liberte;35000 RENNES;-1.6842019;48.1084342
CREPERIE LE SOLIDOR;Restaurant de spécialités;23 RUE JACQUES CARTIER;35400 ST MALO;-2.0232527586705;48.650129863726
CREPERIE LE TOURMENTIN;Restaurant traditionnel;1 PLACE DE LA CHAPELLE;35260 CANCALE;-1.8529128709995;48.671212204
CREPERIE LE TOURNESOL;Restaurant de spécialités;4 rue des Marins;35400 St Malo;-2.0247582;48.6490095
CREPERIE LE TRISKELL;Restaurant de spécialités;15 RUE FRANCOIS CHAPIN;35230 NOYAL CHATILLON SUR SEICHE;-1.6612733294477;48.042662647239
CREPERIE LES AJONCS;Restaurant de spécialités;les Saudrais;35490 SENS DE BRETAGNE;-1.5353005;48.3159886
CREPERIE LES BLÉS D'OR;Restaurant traditionnel;62 Rue de la Poterie;35131 CHARTRES DE BRETAGNE;-1.7029495;48.0415368
CREPERIE LES FEES GOURMANDES;Restaurant de spécialités;9 PLACE DE LA MAIRIE;35630 HEDE BAZOUGES;-1.8018085860407;48.296786175688
CREPERIE LES HALLES;Restaurant traditionnel;28 RUE DU DOCTEUR ROUX;35150 JANZE;-1.4965606573663;47.960307157366
CREPERIE LES KORRIGANS;Restaurant traditionnel;18 RUE DES CORDIERS;35400 ST MALO;-2.0241712;48.6486003
CREPERIE MEVENNAISE;Restaurant de spécialités;19 PLACE DU GENERAL PATTON;35290 ST MEEN LE GRAND;-2.200252143632;48.194162528998
CREPERIE MRS TEAPOT;Restaurant de spécialités;28 rue d Embas;35500 Vitre;-1.2145262;48.1236016
CREPERIE NOTRE DAME;Restaurant de spécialités;26 Rue Notre-Dame;35130 LA GUERCHE DE BRETAGNE;-1.2317915;47.9421415
CREPERIE NOTRE DAME;Restaurant de spécialités;26 rue Notre-Dame;35130 La Guerche De Bretagne;-1.2317915;47.9421415
CREPERIE PAYSANNE;Restaurant traditionnel;6 PLACE SAINTE ANNE;35000 RENNES;-1.6800789714064;48.114148913959
CREPERIE PILE OU FACE;Restaurant de spécialités;2 rue du Manoir;35550 Loheac;-1.8864934;47.8668158
CREPERIE PIZZERIA AUX DELICES DES SENS;Restaurant traditionnel;2 RUE DE LA LIBERATION;35720 PLEUGUENEUC;-1.9029851;48.3979574
CREPERIE PIZZERIA DES HALLES;Restaurant traditionnel;28 Rue du Général Leclerc;35580 GUICHEN;-1.7961568;47.967753
CREPERIE QUAI DES CREPES;Restaurant de spécialités;6 rue de l Orme;35400 St Malo;-2.0249905;48.6479801
CREPERIE RESTAURANT;Restaurant traditionnel;42 RUE DE RENNES;35340 LIFFRE;-1.5090235219996;48.213797188
CREPERIE RESTAURANT LE BRETAGNE;Restaurant traditionnel;2 RUE DE SAINT BRIEUC;35137 BEDEE;-1.945796888424;48.180362175688
CREPERIE ST MELAINE;Restaurant de spécialités;13 rue Saint-Melaine;35000 Rennes;-1.6779773;48.1149316
CREPERIE ST PIERRE;Restaurant de spécialités;5 rue Saint-Pierre;35150 Janze;-1.498324;47.9599147
CREPERIE TANTE SUZETTE;Restaurant de spécialités;2 rue de la Pinterie;35300 Fougeres;-1.2032789;48.3547688
CREPERIE TIMOTHY;Restaurant de spécialités;7 RUE DE LA VIEILLE BOUCHERIE;35400 ST MALO;-2.0255136494604;48.648561097697
CREPERIELA PARENTHÈSE;Restaurant de spécialités;1 Boulevard de la Liberté;35000 RENNES;-1.6745755;48.1074052
CRESCENDO;Restaurant traditionnel;25 RUE DE L ETANG AU DIABLE;35760 ST GREGOIRE;-1.6852971145118;48.136613012473
CRESCENDO;Restaurant traditionnel;LIEU DIT LE PETIT LAUNAY;35410 CHATEAUGIRON;-1.5119231093701;48.040441399148
CROISIERES CHATEAUBRIAND;Promenades fluviales;Barrage de la Rance;35780 LA RICHARDAIS;-2.0341456589996;48.619210701
CRÊPERIE AU COTTAGE;Restaurant de spécialités;18 PLACE DE L EGLISE;35890 BOURG DES COMPTES;-1.7388237886491;47.928803427145
CRÊPERIE DE FAMILLE;Restaurant de spécialités;165 BD ST J B DE LA SALLE;35000 RENNES;-1.7029390335853;48.115195889809
CRÊPERIE DE L'ETANG;Restaurant de spécialités;ZI de l' Etang;35760 ST GREGOIRE;-1.683146;48.153561
CRÊPERIE DU ROY;Restaurant de spécialités;9 BOULEVARD FEART;35800 DINARD;-2.0547219970858;48.634077048849
CRÊPERIE DÉLICES;Restaurant de spécialités;46 RUE DU GENERAL LECLERC;35580 GUICHEN;-1.7964789358878;47.967162684431
CRÊPERIE L'EQUIPAGE;Restaurant de spécialités;6 RUE JACQUES CARTIER;35400 ST MALO;-2.0237568967097;48.649487437352
CRÊPERIE L'HEURE DE LA GALETTE;Restaurant de spécialités;18 PLACE CHARLES DE GAULLE;35420 LOUVIGNE DU DESERT;-1.1227359069996;48.481497288
CRÊPERIE LA BRÉTILLIENNE;Snack (sur place);7 RUE PASTEUR;35550 PIPRIAC;-1.9480112;47.8081609
CRÊPERIE LA GALTOU'Z;Restaurant de spécialités;25 Place du Général Patton;35290 ST MEEN LE GRAND;-2.192985;48.189812
CRÊPERIE LA GALTOU'Z;Restaurant de spécialités;25 PLACE DU GENERAL PATTON;35290 ST MEEN LE GRAND;-2.178175;48.217605
CRÊPERIE LA MOTTE PICQUET RENNES;Restaurant traditionnel;20 rue de la Monnaie;35000 RENNES;-1.6842786;48.1117357
CRÊPERIE LA ROZELL;Restaurant traditionnel;14 RUE DE PENHOET;35000 RENNES;-1.6808471827573;48.113692407438
CRÊPERIE LE TOURNESOL;Restaurant traditionnel;4 RUE DES MARINS;35400 ST MALO;-2.0248411;48.6490271
CRÊPERIE LES BLÉS D'OR;Restaurant de spécialités;62 rue de la Poterie;35131 CHARTRES DE BRETAGNE;-1.7029495;48.0415368
CRÊPERIE TRO BREIZH;Restaurant de spécialités;1 RUE PASTEUR;35460 ST BRICE EN COGLES;-1.3654044168734;48.411225356368
CRÊPERIE VENTS D'OUEST;Restaurant traditionnel;5 Rue du Puits aux Braies;35400 ST MALO;-2.0245543;48.6487771
CRÊPERIE-BISTROT L'ESCALE;Restaurant traditionnel;37 RUE DE DINARD;35780 LA RICHARDAIS;-2.0331700094351;48.604901783513
CUISINE D'ASIE;Restaurant de spécialités;7 rue Thevenard;35400 ST MALO;-2.0268882;48.6480738
D'ICI ET D'AILLEURS;Restaurant traditionnel;52 BOULEVARD DE LA REPUBLIQUE;35400 ST MALO;-2.0083335829996;48.647538836
DEBETHUNE TUGDUAL;Restaurant gastronomique;2 Rue des Carmes;35000 RENNES;-1.676192269779;48.108297384125
DOMAINE DES MAURIERS;Restaurant traditionnel;;35400 ST MALO;-1.9844297359999;48.64265
DU SUD À L'OUEST;Restaurant de spécialités;54 RUE DE RENNES;35830 BETTON;-1.639913950603;48.174934557591
ENTRE EUX DEUX;Restaurant traditionnel;23 RUE LOUIS BREHAULT;35780 LA RICHARDAIS;-2.0347689749996;48.604178294
ESPACE AQUATIQUE INOXIA;Piscine (entrée);Rue du Centaure;35410 CHATEAUGIRON;-1.4978653;48.0397932
ET PÂTE À TY ET PÂTE À CRÊPES;Restaurant de spécialités;19 LA GRANDE RUE;35470 BAIN DE BRETAGNE;-1.6799048016908;47.842495711351
ETOILE DE FOUGERES;Restaurant de spécialités;8 rue des Francais Libres;35300 FOUGERES;-1.1801625;48.3459139
ETOILE DE SAINT MALO;Restaurant traditionnel;2 BOULEVARD DE L ESPERANCE;35400 ST MALO;-1.9902731122685;48.648720489036
EURL SB TWO;Fast-food;5 SQUARE SARAH BERNHARDT;35200 RENNES;-1.6811516575105;48.09134180322
FERME AUBERGE L HERBREGEMENT;Restaurant traditionnel;L Herbregement;35230 NOYAL CHATILLON SUR SEICHE;-1.6747367;48.0475378
FISH ET CHIPS;Fast-food;1 RUE DES ORBETTES;35400 ST MALO;-2.0238093;48.6495229
FJM COTE PLAGE;Restaurant traditionnel;6 BB WILSON;35800 DINARD;-2.0559394699996;48.625967097
FOURNIL DE PIERRE;Snack (sur place);2 RUE DU CLOS SIMON;35200 RENNES;-1.6434990421836;48.09170062003
FRENCHEEZ;Fast-food;8 RUE D ANTRAIN;35700 RENNES;-1.6691293222933;48.122734344729
FROMENT ET SARRASIN;Restaurant de spécialités;2 Place du Marché aux Legumes;35400 ST MALO;-2.0258534;48.6478473
GÎTE DE LA FOSSE;Gîte;LIEU DIT LA FOSSE;35140 VENDEL;-1.2903177724016;48.299914253764
HOTE RESTAURANT CARRE D'AS;Restaurant traditionnel;118 AVENUE DE LA GARE;35480 GUIPRY MESSAC;-1.8184775137342;47.821713307519
HOTEL ARMORICAINE;Hôtels-restaurant;6 RUE DU BOYER;35400 ST MALO;-2.0273778856541;48.64894277656
HOTEL LE NOUVEAU MONDE;Restaurant traditionnel;64 CHAUSSEE DU SILLON;35400 ST MALO;-2.0107513099996;48.653673131
HOTEL RESTAURANT CAMPANILE;Hôtels-restaurant;28 ROUTE D ERNEE;35300 FOUGERES;-1.1857181;48.34648
HOTEL RESTAURANT COSY HOME;Chambre d'hôtes;le Haut Landrier;35520 MELESSE;-1.68298;48.199103
HOTEL RESTAURANT L'ARTIMON;Hôtels-restaurant;61 CHAUSSEE DU SILLON;35400 ST MALO;-2.0046923746898;48.655621917018
HOTEL RESTAURANT LE BRETAGNE;Hôtels-restaurant;6 ROND POINT DU CENTRE;35960 LE VIVIER SUR MER;-1.7754059650297;48.603092175688
HOTEL RESTAURANT LE MANOIR DU CUNNINGHAM;Hôtels-restaurant;9 place Monseigneur Duchesne;35400 St Malo;-2.0217826;48.6359269
HOTEL RESTAURANT LE QUERRIEN;Restaurant traditionnel;7 QUAI DUGUAY TROUIN;35260 CANCALE;-1.8567682435512;48.669934473772
HOTEL RESTAURANT SAINT MALO GOLF;Restaurant traditionnel;SAINT YVIEUX;35540 LE TRONCHET;-1.8401553369996;48.486260905001
HÔTEL LE COMMERCE;Restaurant traditionnel;34 RUE DU GENERAL LECLERC;35580 GUICHEN;-1.7963445;47.967599
HÔTEL RESTAURANT LE DUGUESCLIN;Hôtels-restaurant;20 Place de l' Eglise;35850 ROMILLE;-1.8913062;48.2158516
ILLE ET PIZZA;Snack (sur place);15 Place de l' Eglise;35890 BOURG DES COMPTES;-1.7379198;47.9287474
JARDIN D'ASIE;Restaurant de spécialités;14 RUE DES COMPAGNONS D EMMAUS;35300 FOUGERES;-1.1854101939996;48.353594023
JLC;Restaurant traditionnel;216 RUE DE LORIENT;35000 RENNES;-1.7287872217669;48.106933394974
K0815 BURGER KING RENNES CESSON;Fast-food;Rue DE LA RIGOURDIERE;35510 CESSON SEVIGNE;-1.5840142;48.1159648
K1024 BURGER KING RENNES;Fast-food;16 RUE JEAN LE HO;35000 RENNES;-1.7238219050725;48.106661228144
KAMPUS 137;Parc de loisirs, d'attraction;2 RUE DU TIREL;35320 CREVIN;-1.6707026008756;47.934329697373
KER SOAZIG;Restaurant traditionnel;5 Cours des Alliés;35000 RENNES;-1.6752688;48.105688
KFC;Fast-food;1 RUE DU CHESNAY BEAUREGARD;35760 ST GREGOIRE;-1.6870553;48.1373438
KNOP;Fast-food;7 RUE DE JUILLET;35000 RENNES;-1.6846493639996;48.112425715
L AMARYLLIS;Restaurant de spécialités;8 RUE DE DOL;35960 LE VIVIER SUR MER;-1.774316;48.601992
L AUBERG IN5;Brasserie;2 rue du village de la Metairie;35131 CHARTRES DE BRETAGNE;-1.7114352;48.047301
L AUBERGE DES 4 SAISONS;Restaurant traditionnel;9 RUE DE BRETAGNE;35360 MEDREAC;-2.0675851552888;48.267707605603
L EQUATEUR;Restaurant traditionnel;3 PROMENADE DES ALLIES;35800 DINARD;-2.0529049283144;48.635516428914
L EQUATEUR;Restaurant traditionnel;3-4 PROMENADE DES ALLIES;35800 DINARD;-2.052947;48.6356031
L ILE DU METS;Restaurant traditionnel;4 RUE DESCARTES;35000 RENNES;-1.6737002864274;48.106929656674
L ORIGINAL;Brasserie;2 RUE DE LA MAIRIE;35580 GUIGNEN;-1.8609511378037;47.91951556342
L'AMIRAUTE;Restaurant de spécialités;1 POINTE DU DECOLLE;35800 ST LUNAIRE;-2.113267;48.6394186
L'ANNEXE;Restaurant traditionnel;281 BD DU GENERAL DE GAULLE;35800 ST LUNAIRE;-2.11042730322;48.636894656674
L'ARDOISE;Restaurant traditionnel;3 AVENUE MARECHAL FOCH;35290 ST MEEN LE GRAND;-2.1904399019996;48.188553689
L'ARISTIDE;Restaurant traditionnel;18 RUE DES CORDIERS;35400 ST MALO;-2.0241737669996;48.648575861
L'ARTISAN-BISTROT MODERNE;Restaurant traditionnel;30 RUE D EMBAS;35500 VITRE;-1.193324;48.13843
L'ATELIER DES GOURMETS;Restaurant traditionnel;12 RUE NANTAISE;35000 RENNES;-1.6855692659996;48.111495535
L'AUBERG'IN;Restaurant traditionnel;2, rue du Village de la Métairie;35131 CHARTRES DE BRETAGNE;-1.7102113329996;48.047407624
L'AUBERGE DE LA GRANDE PORTE;Restaurant traditionnel;4 AVENUE DES BRUYERES;35650 LE RHEU;-1.794484561198;48.09974864141
L'AUBERGE DES LYS;Restaurant traditionnel;10 RUE DE L EGLISE;35450 VAL D IZE;-1.3043160324601;48.177514488199
L'AUBERGE DES TILLEULS;Restaurant gastronomique;;35680 CHANCE;-1.38029;48.034745
L'AUBERGE DU CHATEAU;Restaurant traditionnel;25 RUE NATIONALE;35300 FOUGERES;-1.2038491733222;48.35355801887
L'AUBERGE DU PETIT MOULIN;Restaurant traditionnel;LIEU DIT VALAINE;35420 LE FERRE;-1.308079281448;48.469213311312
L'AUBERGE DU PONT DE PACE;Restaurant traditionnel;18 rue du Docteur Léon;35740 Pace;-1.7882917;48.1487355
L'EMERAUDE DE LA BAIE;Brasserie;25 RUE DE SAINT MALO;35120 ST BROLADRE;-1.6557081359996;48.587583065001
L'ESCALE;Brasserie;5 rue de la montre;35400 ST MALO;-2.0247928734491;48.636804697761
L'ESCALE DES BOUCHOTS;Restaurant traditionnel;22 RUE DU BOUT DE LA VILLE;35120 HIREL;-1.8260570430204;48.610317572855
L'ILLE Ô SAVEURS;Restaurant traditionnel;30 RUE NATIONALE;35190 ST DOMINEUC;-1.8766096472101;48.373476966703
L'IMPRO;Restaurant de spécialités;8 PLACE ALEXANDRE VEILLARD;35140 ST AUBIN DU CORMIER;-1.3977228193202;48.260709
L'IMPROBABLE;Restaurant traditionnel;6 PLACE DE LA DUCHESSE ANNE;35600 REDON;-2.0851226418717;47.650337810174
L'INSTANT;Brasserie;3 B PLACE SAINT PIERRE;35310 MORDELLES;-1.85029;48.071584
L'INSTANT CRÊPERIE;Restaurant de spécialités;31 rue Saint Georges;35000 RENNES;-1.6757247;48.1118962
L'O À LA BOUCHE;Restaurant traditionnel;CCAL DE LA DECOUVERTE;35400 ST MALO;-1.9815769;48.6319149
L'ÉCHO DU SARRAZIN;Restaurant de spécialités;16 rue Grand Cour;35600 REDON;-2.0856448;47.6487725
LA BOITE A PIZZA;Snack (sur place);259 RUE DE CHATEAUGIRON;35000 RENNES;-1.6324399;48.0935078
LA BONNE ADRESSE;Restaurant traditionnel;30 AVENUE HENRI FREVILLE;35200 RENNES;-1.6750608729996;48.086311292
LA BRAIZH;Restaurant traditionnel;2 Rue de Montigne;35132 VEZIN LE COQUET;-1.7424115;48.1056756
LA BRASSERIE DES BAINS;Restaurant traditionnel;2 RUE DES BAINS;35800 DINARD;-2.0676798959996;48.636119899001
LA BRETILLIENNE;Restaurant traditionnel;7 RUE PASTEUR;35550 PIPRIAC;-1.9479896579996;47.8083124
LA BRETONNE ( SARL LOVE AND HELP);Restaurant traditionnel;2 RUE DE LA LIBERATION;35770 VERN SUR SEICHE;-1.6025599175659;48.046419
LA BUTINAIS;Restaurant traditionnel;6 LA BUTINAIS;35470 BAIN DE BRETAGNE;-1.7339888681403;47.836530125454
LA CABANE;Restaurant traditionnel;216 RUE DE LORIENT;35000 RENNES;-1.7294217;48.1072651
LA CABANE;Restauration;21 QUAI DUGUAY TROUIN;35400 ST MALO;-2.0154752915633;48.651807394397
LA CABANE;Restaurant de spécialités;12 MAIL FRANCOIS MITTERRAND;35000 RENNES;-1.6872703374978;48.110177168475
LA CALE;Restaurant traditionnel;5 QUAI DE SOLIDOR;35400 ST MALO;-2.0227135229996;48.635197087001
LA CALE DE RÉAN;Restaurant traditionnel;81 RUE DE REDON;35580 GUICHEN;-1.7756913949996;48.001400228
LA CASA NOSTRA;Restaurant de spécialités;3 RUE DES DAMES;35000 RENNES;-1.6832145;48.1106291
LA CASA PEPE;Restaurant de spécialités;29 Rue Saint-Georges;35000 RENNES;-1.675965;48.1118461
LA CASA PÉPÉ;Restaurant de spécialités;4 PLACE DE BRETAGNE;35000 RENNES;-1.684717;48.1092626
LA CASCADE;Restaurant traditionnel;2 PLACE DE LA COLLEGIALE;35500 CHAMPEAUX;-1.3114282813288;48.147162906644
LA CHAUMIÈRE D'HIREL;Restaurant de spécialités;4 RUE DES ECOLES;35120 HIREL;-1.801030940187;48.60621
LA CIDRIERE;Restaurant traditionnel;15 RUE DE DINAN;35850 GEVEZE;-1.7920598885683;48.221487859282
LA CLE DES CHAMPS;Restaurant traditionnel;LE PAS;35320 LA COUYERE;-1.495291;47.881858
LA CLOSERIE DES HORTENSIAS;Restaurant traditionnel;La Haute Forêt;35310 BREAL SOUS MONTFORT;-1.8583943614885;48.069512524775
LA CLÉ DES CHAMPS;Restaurant traditionnel;1 BOULEVARD DE LAVAL;35500 VITRE;-1.2014167079996;48.123897326
LA CORTESSIA;Restaurant de spécialités;15 PLACE SAINT MALO;35310 BREAL SOUS MONTFORT;-1.8686164179996;48.048602781
LA COUR DU TEMPLE;Restaurant de spécialités;5 RUE CHATEAUBRIAND;35270 COMBOURG;-1.7527430430204;48.407979111576
LA CREPE BOUQUINE;Restaurant traditionnel;4 PLACE ALEXANDRE JEHANIN;35190 BECHEREL;-1.9437893;48.2953713
LA CREPE BOUQUINE;Restaurant de spécialités;4 place Alexandre Jehanin;35190 Becherel;-1.944078;48.2954052
LA CREPERIE;Restaurant traditionnel;54 RUE DE RENNES;35830 BETTON;-1.6399043114144;48.17492424785
LA CREPERIE DE LA LANTERNE;Restaurant de spécialités;11 PLACE ALBERT PARENT;35270 COMBOURG;-1.75172;48.4087714
LA CREPERIE DE LOUISE;Restaurant traditionnel;128 CHAUSSEE DU SILLON;35400 ST MALO;-2.0050451508454;48.655446108518
LA CREPERIE DU CHATEAU;Restaurant de spécialités;10 RUE DE LA MADELEINE;35410 CHATEAUGIRON;-1.5016949424087;48.048191266721
LA CREPERIE DU MARCHE;Restaurant de spécialités;5 avenue Edouard VII;35800 DINARD;-2.0578322;48.6333123
LA CREPERIE DU PORCHE;Restaurant de spécialités;26 RUE DU GENERAL DE GAULLE;35380 PAIMPONT;-2.1714587864274;48.019139612817
LA CRÉMAILLIÉRE;Restaurant traditionnel;12 RUE SAINT PIERRE;35150 JANZE;-1.4983178731606;47.960017292256
LA CRÊPERIE DE JULIE;Restaurant de spécialités;10 RUE DU CENTRE;35310 CHAVAGNE;-1.7904661729996;48.052378802
LA CUCINA-LE LION D'OR;Restaurant traditionnel;8 Rue de Fougeres;35340 LIFFRE;-1.5058986;48.2142119
LA CUILLERE EN BOIS;Restaurant traditionnel;33 RUE DES DOUVES;35600 REDON;-2.0865042839995;47.649426498
LA CUISINE À L'ARDOISE;Restaurant traditionnel;RUE DU CENTRE;35114 ST BENOIT DES ONDES;-1.8523231;48.6197789
LA DALLE;Brasserie;25 PLACE DU COLOMBIER;35000 RENNES;-1.6788993162618;48.104820671101
LA DUCHESSE ANNE;Restaurant de spécialités;3 PLACE GUY LA CHAMBRE;35400 ST MALO;-2.0231803293035;48.650255454902
LA FABRIK A PIZZAS ARTISANALES;Fast-food;19 QUAI DES BATELIERS;35480 GUIPRY MESSAC;-1.8232480788274;47.822409219545
LA FABRIQUE D'EMBAS;Restaurant de spécialités;6 rue d'embas;35500 VITRE;-1.2136074709996;48.123676873
LA FEE GOURMANDE;Restaurant de spécialités;16 AVENUE DU CHEVALIER PONTHUS;35380 PAIMPONT;-2.1720918749996;48.016182715
LA FERME DE BEAUMONT;Restaurant traditionnel;;35310 MORDELLES;-1.8217301029999;48.068305
LA FERME DES NIELLES;Snack (sur place);les Nielles;35350 ST MELOIR DES ONDES;-1.8631714;48.630344
LA FERME DU BOUCANIER;Restaurant traditionnel;2 RUE DE L HOPITAL;35430 ST SULIAC;-1.9743903619613;48.570516156464
LA FONTAINE AUX PERLES;Restaurant gastronomique;96 RUE DE LA POTERIE;35200 RENNES;-1.6430876611172;48.093681656674
LA GENTILHOMMIERE;Chambre d'hôtes;Impasse de la Heuzanne;35135 CHANTEPIE;-1.610494;48.078076
LA GOURMANDISE;Restaurant de spécialités;26 RUE D EMBAS;35500 VITRE;-1.2146021239996;48.123610633
LA GRANDE BRASSERIE;Brasserie;9 Place du Général de Gaulle;35500 VITRE;-1.2120389;48.1231176
LA GRANDE MARE;Chambre d'hôtes;46 RUE DU BORD DE MER;35114 ST BENOIT DES ONDES;-1.8528967189995;48.620914746
LA GUYM'S CREPERIE;Restaurant traditionnel;26 RUE DE LA GUIMORAIS;35350 ST COULOMB;-1.9374371421716;48.687433123953
LA MAISON DE CLAIRE;Location saisonnière, meublé;2 RUE DE COUESNON;35560 ANTRAIN;-1.4863216588955;48.461451485429
LA MANDOLINE;Restaurant de spécialités;12 PLACE DE REPUBLIQUE;35470 BAIN DE BRETAGNE;-1.6804910019332;47.842161130158
LA NOTTÉ;Restaurant de spécialités;4 RUE DES INNOCENTS;35000 RENNES;-1.682577864418;48.113590222315
LA P'TITE FEUTERIE;Restaurant traditionnel;24 RUE DES FEUTERIES;35300 FOUGERES;-1.1963210553696;48.352945809048
LA P'TITE FLAMBÉE;Restaurant traditionnel;1 RUE DE L ERBONIERE;35510 CESSON SEVIGNE;-1.6286407440995;48.105192279214
LA PALM DAY;Restaurant traditionnel;48 Boulevard Jules Verger;35800 DINARD;-2.0687616;48.6180051
LA PART DES ANGES;Restaurant de spécialités;5 PLACE DE LA CROIX;35190 BECHEREL;-1.9438204869583;48.295011865947
LA PASTOURELLE;Chambre d'hôtes;les Nielles;35260 CANCALE;-1.8648049999999;48.678705758
LA PIAZZA;Restaurant traditionnel;ZA LA JANAIE;35780 LA RICHARDAIS;-2.03436;48.606702
LA PIAZZA;Restaurant de spécialités;1 place du General de Gaulle;35800 DINARD;-2.0555362;48.6274469
LA PLACE RESTAURANT;Brasserie;1 QUAI DUGUAY TROUIN;35260 CANCALE;-1.8563695248427;48.670168557591
LA PTITE PARLOTTE;Restaurant traditionnel;8 RUE GUSTAVE FLAUBERT;35400 ST MALO;-1.9842214869583;48.657999185123
LA RE SOURCE;Restaurant traditionnel;59 Rue de Brest;35360 MONTAUBAN DE BRETAGNE;-2.0493604;48.2011964
LA RECETTE DU BONHEUR;Restaurant traditionnel;1 RUE DE LA LIBERATION;35540 PLERGUER;-1.8485345430203;48.526769263114
LA ROMA;Restaurant traditionnel;16 Place Saint Pierre;35240 RETIERS;-1.3787832;47.9133804
LA SAINT GEORGES;Restaurant traditionnel;17 RUE JULES SIMON;35000 RENNES;-1.6788701;48.1080883
LA SARRAZINE;Restaurant de spécialités;28-30 RUE SAINT GEORGES;35000 RENNES;-1.6758644562871;48.111899427145
LA STORIA;Snack (sur place);71 RUE VILLE PEPIN;35400 ST MALO;-2.0131205867332;48.633818249235
LA STRADA;Restaurant de spécialités;5 PLACE DES MARELLES;35135 CHANTEPIE;-1.6208077639996;48.088399058001
LA TABLE DE L'AMANTE VERTE;Table d'hôtes;7 LA CHATAIGNERAIE DES LANDES;35550 SIXT SUR AFF;-2.0266787509996;47.799327325
LA TABLE MALOUINE;Brasserie;19 RUE JACQUES CARTIER;35400 ST MALO;-2.0233742586705;48.649950754371
LA TABLE RONDE;Restaurant de spécialités;34 GRANDE RUE DES STUARTS;35120 DOL DE BRETAGNE;-1.7548255;48.5496938
LA TABLE ST ELOI;Restaurant de spécialités;27 RUE DU GENERAL DE GAULLE;35360 MONTAUBAN DE BRETAGNE;-2.0473671427953;48.199658867332
LA TABLEE DE MOIGNE;Restaurant traditionnel;4 RUE FRANCOIS BELLAY;35650 LE RHEU;-1.7746540573029;48.080597289774
LA TAVERNE;Restaurant traditionnel;10 RUE DE LA LOIRE;35470 BAIN DE BRETAGNE;-1.6802541339996;47.854132585
LA TEMPETE;Brasserie;4 GRANDE RUE;35400 SAINT MALO;-2.0243107821282;48.649079849847
LA TRATTORIA MALOUINE;Restaurant de spécialités;4 RUE DES MARINS;35400 ST MALO;-2.0248411;48.6490271
LA VAGUE;Restaurant traditionnel;73 BOULEVARD DE ROCHEBONNE;35400 ST MALO;-1.9888289834958;48.662747800998
LA VILLA ARANCIA;Restaurant de spécialités;9 Rue Pasteur;35137 PLEUMELEUC;-1.9188318274948;48.178558472649
LA VILLA ESPRIT DE FAMILLE;Chambre d'hôtes;19 PLACE DU CANADA;35400 ST MALO;-1.9679304497663;48.68150140161
LA VILLA GRILL PIZZERIA;Restaurant de spécialités;16 RUE D ALETH;35350 LA GOUESNIERE;-1.8996402310578;48.604874427145
LA VIRGULE;Restaurant traditionnel;zone d'activité emile bridel;35640 MARTIGNE FERCHAUD;-1.3220260511553;47.821704654966
LE BAC O' SABLONS;Brasserie;18 B RUE DES BAS SABLONS;35400 ST MALO;-2.0190174410237;48.637717752986
LE BALAFON;Restaurant traditionnel;31 Rue de la Vallée;35800 DINARD;-2.0572757;48.6312213
LE BAMBOU;Restaurant de spécialités;2 RUE DE RENNES;35850 IRODOUER;-1.9502116290611;48.24981036664
LE BISTRO DU COIN;Restaurant traditionnel;44 Rue Auguste Pavie;35000 RENNES;-1.6360533;48.103843
LE BISTROT;Restaurant traditionnel;28 RUE DU GENERAL DE GAULLE;35410 CHATEAUGIRON;-1.5056457;48.0501123
LE BISTROT D'ANGEL;Restaurant de spécialités;8-10 rue de la mairie;35580 GOVEN;-1.8455105;48.0065081
LE BISTROT D'HENRY;Restaurant traditionnel;12 PLACE DE L EGLISE;35350 ST MELOIR DES ONDES;-1.9036713799996;48.637332023
LE BISTROT DE CATHY;Restaurant traditionnel;3 RUE JACQUES CARTIER;35400 ST MALO;-2.0237902595072;48.649196210658
LE BISTROT DE COURTOISVILLE;Brasserie;2 AVENUE DU REVEREND PERE UMBRICHT;35400 ST MALO;-1.9963476201743;48.657322729384
LE BISTROT DES REMPARTS;Restaurant traditionnel;16 RUE NANTAISE;35000 RENNES;-1.6855393489996;48.111785528
LE BISTROT MIJOTÉ;Restaurant traditionnel;14 Place de l' Eglise;35850 GEVEZE;-1.7895545;48.2207838
LE BONHEUR EST DANS LE BLE;Restaurant de spécialités;18 RUE DU MARECHAL LECLERC;35220 CHATEAUBOURG;-1.4051418054417;48.108515647239
LE BRETAGNE;Restaurant traditionnel;10 PLACE DU PRESIDENT CARNOT;35300 FOUGERES;-1.2004542135726;48.355164733279
LE BRETON VOYAGEUR;Restaurant de spécialités;2 RUE SAINT THOMAS;35000 RENNES;-1.6759793973108;48.108398050234
LE CAFE DES BAINS;Restaurant traditionnel;36/38 RUE SAINT-GEORGES;35000 RENNES;-1.6757187;48.1118719
LE CAFE DES JACOBINS;Restaurant de spécialités;8 RUE SAINT MALO;35000 RENNES;-1.6808398694097;48.115705557591
LE CAFE POPULAIRE;Restaurant traditionnel;15 RUE SAINT MELAINE;35000 RENNES;-1.6780800750765;48.11496235054
LE CANCALAIS;Restaurant traditionnel;12 QUAI GAMBETTA;35260 CANCALE;-1.8542226109996;48.671157325
LE CANCALAIS;Brasserie;1 QUAI DE SOLIDOR;35400 ST MALO;-2.0228545531479;48.63522914294
LE CARRE ROUGE;Restaurant de spécialités;43 GRANDE RUE DES STUARTS;35120 DOL DE BRETAGNE;-1.7560607113509;48.549521514571
LE CHENE VERT;Brasserie;2 PLACE DU GENERAL DE GAULLE;35500 VITRE;-1.2113953;48.1227323
LE CINQUECENTO;Restaurant traditionnel;5 QUAI LAMENNAIS;35000 RENNES;-1.681011;48.10981954732
LE CITRUS;Restaurant traditionnel;14 B Rue Yves Verney;35800 DINARD;-2.0563491;48.6343495
LE CLOS SAINT MARTIN;Restaurant traditionnel;47 BOULEVARD DE LA LIBERTE;35600 REDON;-2.083373;47.6549806
LE COMPTOIR BREIZH CAFE;Restaurant traditionnel;6 RUE DE L ORME;35400 ST MALO;-2.0250149;48.6480729
LE COMPTOIR DE LA LICORNE;Brasserie;CENTRE COMMERCIAL ESSENTIEL;35730 PLEURTUIT;-2.0603751039995;48.579817891
LE CONGRÈS;Restaurant traditionnel;21 RUE SAINT MALO;35000 RENNES;-1.6808841407179;48.116789077991
LE COSY;Brasserie;9 B RUE DE PARIS;35510 CESSON SEVIGNE;-1.599805;48.1141275
LE COUP DE PINCEAU;Restaurant traditionnel;29 Boulevard Beaumont;35000 RENNES;-1.6744969;48.1038791
LE CREPE SHOW;Brasserie;1 place Guy la Chambre;35400 ST MALO;-2.0231638;48.6502506
LE FARFADET GOURMAND;Restaurant de spécialités;1 B BOULEVARD DU MARECHAL LECLERC;35300 FOUGERES;-1.204626;48.3515609
LE FOURNIL;Restaurant traditionnel;2 rue de la Quintaine;35560 LA FONTENELLE;-1.5034776;48.4674651
LE GLACIER RENNAIS;Snack (sur place);10 RUE DE LA VISITATION;35000 RENNES;-1.6790865;48.1141544
LE HANGAR;Restaurant traditionnel;LA CHENAIS;35550 PIPRIAC;-1.9622089097625;47.808129687863
LE HARICOT ROUGE;Restaurant traditionnel;10 Rue Baudrairie;35000 RENNES;-1.6785453;48.1105421
LE JARDIN DES SIMPLES;Chambre d'hôtes;2 ruelle Chanoine Descottes;35120 MONT DOL;-2.9326435;48.2020471
LE KABOUL RESTAURANT;Restaurant de spécialités;18 RUE DE TOULOUSE;35400 ST MALO;-2.0259544709996;48.646682647
LE KERCE-INE;Restaurant traditionnel;46 avenue du Maréchal Leclerc;35310 MORDELLES;-1.8460031439996;48.073955936
LE LANDRY RESTAURANT;Brasserie;167 Rue de Chateaugiron;35000 RENNES;-1.6432539;48.0980248
LE LOSANGE SARL;Restaurant traditionnel;14 RUE DU FOUR DE LA HOULE;35800 ST BRIAC SUR MER;-2.1339600549656;48.623085503462
LE MABILAY;Restaurant traditionnel;2 RUE DE LA MABILAIS;35000 RENNES;-1.6942603;48.1068653
LE MANOIR DE BELLE-NOË;Chambre d'hôtes;LA BELLE NOE;35120 DOL DE BRETAGNE;-1.7143735833298;48.530873852381
LE MILLESIM';Restaurant traditionnel;11 Rue des Cordiers;35400 ST MALO;-2.0240397;48.6483291
LE MOON;Restaurant traditionnel;4 AVENUE JEAN JANVIER;35000 RENNES;-1.6733607634023;48.107152330833
LE MÉKONG;Restaurant traditionnel;180 RUE DE FOUGERES;35700 RENNES;-1.6578412811472;48.124493811818
LE P'TIT EN K;Snack (sur place);3 B BOULEVARD VILLEBOIS MAREUIL;35160 MONTFORT SUR MEU;-1.9573413419412;48.139713
LE PANDA RÉPUBLIQUE;Restaurant traditionnel;1 RUE MARECHAL JOFFRE;35000 RENNES;-1.6778055;48.1093711
LE PASSENGER;Restaurant de spécialités;4 RUE DE LA HARPE;35400 ST MALO;-2.0265834122776;48.648217475178
LE PATIO;Restaurant traditionnel;4 Allée Morvan Lebesque;35700 RENNES;-1.6336457;48.1305944
LE PENJAB;Restaurant de spécialités;14 RUE SAINTE BARBE;35400 ST MALO;-2.024579;48.6505605
LE PETIT BAIGNEUR;Restaurant traditionnel;14 RUE RALLIER DU BATY;35000 RENNES;-1.6812777526978;48.113035753535
LE PETIT CABOULOT;Restaurant traditionnel;29 AVENUE LOUIS BARTHOU;35000 RENNES;-1.6714282509996;48.10491251
LE PETIT CRÊPIER;Restaurant traditionnel;6 RUE SAINTE BARBE;35400 ST MALO;-2.0238808148768;48.649777019707
LE PETIT ST LU;Salons de thé;91 boulevard du Général de Gaulle;35800 ST LUNAIRE;-2.1079149469996;48.636482601
LE PHARE;Restaurant traditionnel;6 QUAI ADMINISTRATEUR CHEF THOMAS;35260 CANCALE;-1.8550247119996;48.675454457
LE PICCADILLY;Brasserie;15 Galerie du Théâtre;35000 RENNES;-1.6784097;48.111048
LE PICCADILLY;Brasserie;1 PLACE DE LA MAIRIE;35000 RENNES;-1.6802526609996;48.11161917
LE PONTON CAFÉ RESTAURANT;Restaurant traditionnel;PORT DES BAS SABLONS;35400 ST MALO;-2.0190871961279;48.637598174453
LE POT DE BEURRE;Restaurant de spécialités;2 PLACE PONTHUAL;35800 ST LUNAIRE;-2.1075968009995;48.633622233
LE POURQUOI PAS;Restaurant traditionnel;8 RUE EMILE BRIDEL;35640 MARTIGNE FERCHAUD;-1.3181202278838;47.831000102689
LE PROVENCAL;Brasserie;22 COURS PDT J FITZGERALD KENNEDY;35000 RENNES;-1.708974;48.121440485429
LE Q DE POULE;Restaurant traditionnel;37 rue Vasselot;35000 RENNES;-1.6770364;48.1086413
LE RELAIS DES PRINCES;Restaurant traditionnel;11 RUE DES PRINCES;35270 COMBOURG;-1.7522918929996;48.408553577
LE REPAIRE;Restaurant traditionnel;1 BOULEVARD PIERRE BARBOT;35530 NOYAL SUR VILAINE;-1.5253454869996;48.114952151
LE RESTO THAI;Restaurant de spécialités;19 BOULEVARD WILSON;35800 DINARD;-2.0533327259996;48.635152987
LE ROMANTIC;Restaurant traditionnel;12 PLACE DES DEPORTES;35270 COMBOURG;-1.7532299649995;48.407365890001
LE ROYAL;Brasserie;3 PLACE DU CALVAIRE;35000 RENNES;-1.6810724074384;48.110888536211
LE SAINT SAMSON;Restaurant traditionnel;21 RUE CEINTE;35120 DOL DE BRETAGNE;-1.7549528539996;48.550592535
LE SAINT SAUVEUR;Restaurant traditionnel;6, RUE SAINT SAUVEUR;35000 RENNES;-1.6823126559996;48.111744475
LE SANCHEZ;Restaurant traditionnel;9 RUE DE LA VIEILLE BOUCHERIE;35400 ST MALO;-2.02538;48.6488471
LE SEBASTIANO;Restaurant traditionnel;15 PLACE DE L EGLISE;35890 BOURG DES COMPTES;-1.7382030401062;47.928814376075
LE SNACK;Snack (sur place);7 RUE SAINTE BARBE;35400 ST MALO;-2.0243569039995;48.650444854
LE SULTAN;Fast-food;67 AVENUE ANDRE BONNIN;35135 CHANTEPIE;-1.6194354621155;48.088509150153
LE TEMPS QU'IL FAUT;Restaurant traditionnel;19 RUE DU TEMPLE;35150 PIRE SUR SEICHE;-1.4291555;48.009094
LE THEATRE;Brasserie;333 BOULEVARD DU GENERAL DE GAULLE;35800 ST LUNAIRE;-2.1108547049996;48.636972652001
LE VALY;Brasserie;148 B RUE DE LORIENT;35000 RENNES;-1.7149887762998;48.107829226759
LE VÉNITIEN;Restaurant de spécialités;48 RUE LEJAMPTEL;35120 DOL DE BRETAGNE;-1.7520718935599;48.550935268942
LE WOK RESTAURANT;Restaurant de spécialités;2 AVENUE JEAN JANVIER;35000 RENNES;-1.6737422364821;48.108608916181
LECLERC;Self-service, cafétéria (sur place);27;35470 BAIN DE BRETAGNE;-1.6820257529999;47.839195
LEON LE COCHON AU STADE RENNAIS;Restaurant traditionnel;111 Rue de Lorient;35000 RENNES;-1.7128875;48.1075474
LEPI DE BLE;Restaurant de spécialités;CAP MALO;35520 LA MEZIERE;-1.7275900551088;48.2008000717
LES 3 SINGES;Brasserie;9 RUE DE MONTIGNE;35132 VEZIN LE COQUET;-1.743499010416;48.105856710486
LES 36 CHANDELLES;Restaurant traditionnel;3 RUE DE L EGLISE;35120 ROZ LANDRIEUX;-1.8142863479996;48.543632519
LES BETISES;Restaurant de spécialités;25 RUE SAINT MELAINE;35000 RENNES;-1.6766244829996;48.114905017
LES CAP HORNIERS;Brasserie;1 ESP DU COMMANDANT MENGUY;35400 ST MALO;-2.0235486062958;48.635313442149
LES CHAMPS DE ROZ;Pension de famille / maison familiale;8 GRANDE RUE;35120 ROZ LANDRIEUX;-1.8190325167926;48.531489789342
LES COMMERCES SAINT-MICHEL;Restaurant traditionnel;l' Hôpital;35610 ROZ SUR COUESNON;-1.597684;48.593656
LES COMPTOIRS CASINO;Self-service, cafétéria (sur place);RUE DU BOSPHORE;35200 RENNES;-1.6768831;48.0836943
LES DÉLICES DES ROCHERS;Restaurant traditionnel;LIEU DIT LES ROCHERS;35500 VITRE;-1.1673798989996;48.077274936
LES GRANDS GAMINS;Restaurant traditionnel;40 MAIL FRANCOIS MITTERRAND;35000 RENNES;-1.6896062259996;48.109667111
LES MARCHES DU MONT;Chambre d'hôtes;GUIBOREL;35460 ST OUEN LA ROUERIE;-1.4317745257929;48.434184925122
LES PECHEURS;Restaurant de spécialités;45-47 AVENUE JEAN JANVIER;35000 RENNES;-1.6728041426511;48.105467779907
LES PETITS POTINS;Restaurant traditionnel;4 R du Chanoine de Rossignol;35150 JANZE;-1.4975801;47.9606811
LES SAVEURS DE NICOLAS;Restaurant traditionnel;19 place de l'église;35410 NOUVOITOU;-1.5470802;48.0416974
LOCATION SAISONNIÈRE LE MOINS RELOU;Restaurant traditionnel;773 BOULEVARD DE SAINT CAST;35800 ST LUNAIRE;-2.1207522572855;48.634086101304
LOCATIONS SAISONNIERES DELENTE;Chambre d'hôtes;25 RUE DE PONTORSON;35560 ANTRAIN;-1.4835717067919;48.461565487391
LOCO-LOCA;Restaurant traditionnel;17, rue Lanjuinais;35000 RENNES;-1.6819399744647;48.10876
LUCKY STAR;Restaurant traditionnel;21 RUE DE REDON;35000 RENNES;-1.6908645174851;48.105132915344
MAIS Y'A QUOI?;Restaurant traditionnel;13 Rue Abbé Chapdeleine;35270 MEILLAC;-1.8120878;48.4116139
MAMMA VESPA;Restaurant traditionnel;21 RUE HOCHE;35000 RENNES;-1.6773126335045;48.114765031364
MC DONALD'S;Fast-food;LIEU DIT LA BASSE PILAIS;35133 LECOUSSE;-1.217228;48.366141
MC DONALD'S;Fast-food;LIEU DIT TEILLAY;35150 JANZE;-1.5339432519996;47.971791546
MC DONALD'S;Fast-food;19 PLACE DE LA GARE;35000 RENNES;-1.6717485123492;48.103727605603
MIAMATHEQUE;Restaurant traditionnel;31 RUE NICOLAS BOUVIER;35400 ST MALO;-2.0066411147139;48.647400735269
MMV RESIDENCES LE DOMAINE DU MONT;Résidence Hôtelière de Tourisme;ROUTE DE LA BAIE L'HOPITAL;35610 ROZ SUR COUESNON;-1.59797;48.59395
MOD KOZ;Brasserie;3 B RUE JEAN MARIE DUHAMEL;35000 RENNES;-1.6733144909996;48.108817137
MOULARD D'OGUST;Brasserie;01 AVENUE DE LA FLAUDAIE;35400 ST MALO;-1.9956062663736;48.624523830148
NEW BELLA VITA;Restaurant traditionnel;11 RUE VICTOR HUGO;35600 REDON;-2.0854578928675;47.650682766028
NEW DÉLICES D'ASIE;Restaurant traditionnel;119 av gros malhon;35000 RENNES;-1.6859144650297;48.133436343326
O SAVEURS DU LARGE;Restaurant traditionnel;39 RUE NICOLAS BOUVIER;35400 ST MALO;-2.0067084769996;48.64756217
OH MY BICHE;Brasserie;18 MAIL FRANCOIS MITTERRAND;35000 RENNES;-1.6876073345836;48.110106226759
OLIVIER CHIFFOLLEAU;Restaurant de spécialités;5 PLACE DE LA CROIX;35190 BECHEREL;-1.9438390869996;48.295016713001
OUEST INDIES;Restaurant traditionnel;87 BOULEVARD DE LAVAL;35500 VITRE;-1.1933765599996;48.122917223
PDP RENNES LONGCHAMPS;Restaurant traditionnel;316 RUE DE FOUGERES;35700 RENNES;-1.6339646683306;48.132203123233
PEPONE;Restaurant de spécialités;1 PLACE SAINT GILDUIN;35270 COMBOURG;-1.7487992355012;48.410728324168
PIERRICK SALLIOU;Restaurant de spécialités;LE BODO;35380 PLELAN LE GRAND;-2.1018527758922;47.989216293737
PITA PIT;Restaurant traditionnel;8 RUE DE LA VISITATION;35000 RENNES;-1.6790461552888;48.114420580068
PIZZ'AROMZ;Fast-food;16 T RUE DE MACERIA;35520 LA MEZIERE;-1.7518622259996;48.21836366
PIZZA DEL ARTE;Restaurant traditionnel;105 avenue Henri Freville;35200 Rennes;-1.6741518;48.0872106
PIZZA DEL ARTE;Restaurant traditionnel;105 A AVENUE HENRI FREVILLE;35200 RENNES;-1.6736798579996;48.087892991001
PIZZA DEL ARTE;Restaurant traditionnel;52 AVENUE DU CANADA;35207 RENNES CEDEX 2;-1.6799484449996;48.085059850001
PIZZA SALSA;Restaurant de spécialités;3 Rue de la Cité;35400 ST MALO;-2.0261198;48.6358518
PIZZA SPRINT;Snack (sur place);13 RUE DE RENNES;35410 CHATEAUGIRON;-1.5112127;48.0531781
PIZZA SPRINT;Fast-food;16 Rue de Paris;35220 CHATEAUBOURG;-1.4025475;48.1089348
PIZZA TEMPO;Fast-food;130 rue de Fougeres;35700 RENNES;-1.6620370649996;48.122093863
PIZZERIA L' EXCALIBUR;Restaurant traditionnel;35 Avenue de la Libération;35380 PLELAN LE GRAND;-2.0963864;48.0026771
PIZZERIA LE CAPRI;Restaurant de spécialités;9 Boulevard de Saint-Germain;35300 FOUGERES;-1.2094328;48.3622187
PIZZERIA CASTOR BELLUX;Restaurant de spécialités;5 RUE WINSTON CHURCHILL;35800 DINARD;-2.0527324474003;48.634973413267
PIZZERIA COTE COUR;Restaurant de spécialités;7 Allée Rallier du Baty;35000 RENNES;-1.6810663;48.1125948
PIZZERIA CREPERIE LE BORSALINO;Restaurant traditionnel;17 Rue du Couvent;35580 GUIGNEN;-1.8607377;47.9196071
PIZZERIA DA PIETRO;Restaurant traditionnel;39 Rue Vasselot;35000 RENNES;-1.6769452;48.108628
PIZZERIA DA THEO;Restaurant de spécialités;240 RUE DE FOUGERES;35700 RENNES;-1.6525963874431;48.127124598938
PIZZERIA DEL CASTELLO;Restaurant de spécialités;6 rue des Princes;35270 Combourg;-1.7522333;48.4086291
PIZZERIA DU CAFE DE ST MALO;Restaurant de spécialités;2 PLACE GUY LA CHAMBRE;35400 ST MALO;-1.9751733599746;48.66298235582
PIZZERIA ENTRE TERRE ET MER;Restaurant de spécialités;1 Rue de la Libération;35540 PLERGUER;-1.8484477;48.5267811
PIZZERIA FESTIVAL;Restaurant de spécialités;14 rue des Cordiers;35400 St Malo;-2.0241966;48.6482129
PIZZERIA GIOPEPE;Snack (sur place);6 RUE DES SPORTS;35370 ARGENTRE DU PLESSIS;-1.1523448;48.0588812
PIZZERIA GRILL LE MARCO POLO;Restaurant traditionnel;1 PLACE HENRI IV;35470 BAIN DE BRETAGNE;-1.6802919533729;47.843084514571
PIZZERIA GUSTO;Restaurant traditionnel;1 rue de Siochan;35430 ST JOUAN DES GUERETS;-1.977386;48.603308
PIZZERIA L'ECUYER;Restaurant de spécialités;2 RUE GARENGEOT;35500 VITRE;-1.2128386143373;48.124711412109
PIZZERIA L'ESCALE;Restaurant de spécialités;108 avenue de la Gare;35480 Messac;-1.8173777;47.8222299
PIZZERIA LA CASA;Restaurant de spécialités;14 Rue de la Libération;35770 VERN SUR SEICHE;-1.6022595;48.0480042
PIZZERIA LA COMMEDIA;Restaurant de spécialités;27 RUE DES CARMES;35120 DOL DE BRETAGNE;-1.7500469876507;48.551781394397
PIZZERIA LA CORTESSIA;Restaurant de spécialités;15 Place Saint-Malo;35310 BREAL SOUS MONTFORT;-1.8685616;48.0487091
PIZZERIA LA LUPA;Restaurant de spécialités;10 rue Rallier du Baty;35000 Rennes;-1.681409;48.1127934
PIZZERIA LA NAIADE;Restaurant de spécialités;9 place du Théâtre;35300 Fougeres;-1.2027798;48.3547992
PIZZERIA LA PIGNATTA;Restaurant de spécialités;15 RUE JACQUES CARTIER;35400 ST MALO;-2.0234912586705;48.649760863726
PIZZERIA LA SCALA;Brasserie;5 RUE SAINT NICOLAS;35160 MONTFORT SUR MEU;-1.9540168;48.1377721
PIZZERIA LA SCOPA;Restaurant de spécialités;17 Rue de la Madeleine;35410 CHATEAUGIRON;-1.5024955;48.048068
PIZZERIA LA SOURCE;Restaurant de spécialités;7 RUE ERNEST LAMORT;35260 CANCALE;-1.8623032857349;48.668250478216
PIZZERIA LA SQUADRA;Restaurant de spécialités;24 PLACE DE LA MAIRIE;35630 HEDE;-1.8024515568988;48.29600904302
PIZZERIA LA STRADA;Restaurant de spécialités;13 RUE DU CENTRE;35590 ST GILLES;-1.8296446007559;48.154480658895
PIZZERIA LA TOMATE;Restaurant de spécialités;18 Rue Saint-Georges;35000 RENNES;-1.6764707;48.1117929
PIZZERIA LA TRATTORIA CESSON;Restaurant de spécialités;CARREFOUR CESSON SEVIGNE;35510 CESSON SEVIGNE;-1.5890199999999;48.11244
PIZZERIA LA VERANDA;Restaurant de spécialités;9 BOULEVARD DE LA LIBERTE;35220 CHATEAUBOURG;-1.4081110407987;48.10544554732
PIZZERIA LA VILLA ROSSA;Restaurant traditionnel;8 Rue de la Cour Saint-Michel;35150 JANZE;-1.4987702;47.9593015
PIZZERIA LE PILI-PILI;Restaurant traditionnel;11 Rue Victor Hugo;35600 REDON;-2.0854708;47.650713
PIZZERIA LE PLAZZA;Restaurant de spécialités;4 Place Gambetta;35300 FOUGERES;-1.2013206;48.3548842
PIZZERIA LE QUINCAMPOIX;Restaurant de spécialités;lieu dit la Métairie;35520 Melesse;-1.7027995;48.2130047
PIZZERIA LE RELAIS DE LA GRAVELLE;Restaurant traditionnel;LE BOURG;35560 MARCILLE RAOUL;-1.5917549999999;48.4006
PIZZERIA RESTAURANT LA GERVILLOISE;Restaurant de spécialités;9 PLACE DE L EGLISE;35360 BOISGERVILLY;-2.064226350558;48.166627350558
PIZZERIA SANTA LUCIA;Restaurant de spécialités;23 boulevard wilson;35800 DINARD;-2.0535051;48.635118
PIZZERIA SPRINT;Fast-food;1 Promenade du Grand Mail;35130 LA GUERCHE DE BRETAGNE;-1.2325708;47.9427393
PIZZÉRIA LA BEFANA;Restaurant de spécialités;29 SQUARE SAINT MARTIN;35230 NOYAL CHATILLON SUR SEICHE;-1.6620771846837;48.042581111487
PIZZÉRIA LA SAN REMO;Restaurant traditionnel;7 PLACE DE LA GARE;35000 RENNES;-1.6731757;48.104532
POIVRE ROUGE;Restaurant traditionnel;50 RUE DE RENNES;35600 REDON;-2.0728331839996;47.659728693
PUB BELLE EPINE;Salons de thé;52 AVENUE DU CANADA;35200 RENNES;-1.6825999602175;48.082519234565
QUARTIER LATIN;Restaurant traditionnel;40 Place du Colombier;35000 RENNES;-1.6814542;48.1050009
QUICK HAMBURGER RESTAURANT;Fast-food;LIEU DIT AUGE DE PIERRE;35760 ST GREGOIRE;-1.6926262816627;48.136069586851
QUICK HAMBURGER RESTAURANT;Fast-food;1 quai Lamennais;35000 Rennes;-1.6802171;48.109829
RESTAURANT JARDIN D'ASIE;Restaurant traditionnel;14 RUE DES COMPAGNONS D EMMAUS;35300 FOUGERES;-1.1854127514571;48.353590078279
RESTAURANT L'IMPREVU;Restaurant traditionnel;3 PLACE DE L EGLISE;35460 ST OUEN LA ROUERIE;-1.4416635;48.4626099
RESTAURANT LA BUTINAIS;Restaurant traditionnel;;35470 BAIN DE BRETAGNE;-1.732943;47.836846
RESTAURANT LA CHOPE;Restaurant traditionnel;3 Rue de la Chalotais;35000 RENNES;-1.6805368;48.1092942
RESTAURANT LA ROSE DES VENTS;Restaurant traditionnel;4 PLACE DE LA CROIX DU FIEF;35400 ST MALO;-2.0246056923366;48.649885040799
RESTAURANT LA TAVERNE DE LA MARINE;Restaurant traditionnel;2 place de Bretagne;35000 Rennes;-1.6846944;48.1095082
RESTAURANT LA VIEILLE AUBERGE;Restaurant traditionnel;la Vieille Auberge;35630 Hede;-1.802047;48.295423
RESTAURANT LE PORT DE ROCHE;Restaurant traditionnel;Port de Roche;35660 LANGON;-1.846006;47.739593
RESTAURANT LE SPINNAKER;Restaurant traditionnel;26 rue des Bas Sablons;35400 ST MALO;-2.0192675;48.6375085
RESTAURANT VIA PIZZA;Restaurant traditionnel;56 Rue de la Gare;35800 DINARD;-2.0645214;48.6306869
RESTAURANT VIA ROMA;Restaurant traditionnel;268 RUE DE FOUGERES;35700 RENNES;-1.6467625217843;48.128604999163
RESTAURANT "LES HALLES SAINT GREGOIRE";Restaurant traditionnel;6 BOULEVARD DE LA ROBIQUETTE;35760 ST GREGOIRE;-1.6928631419996;48.133305031
RESTAURANT A CONTRE COURANT;Restaurant traditionnel;3 Place du Calvaire;35260 CANCALE;-1.855893;48.6706893
RESTAURANT A LA BONNE FRANQUETTE;Restaurant traditionnel;6 rue Abbé Crublet;35680 Bais;-1.2892414;48.009929
RESTAURANT ADONIS;Restaurant traditionnel;17 RUE SAINT MALO;35000 RENNES;-1.6808815896474;48.116627863726
RESTAURANT AIGLE ROUGE;Snack (sur place);6 Allée de la Bourgonnette;35000 RENNES;-1.6343277;48.0952686
RESTAURANT AIGLE ROUGE;Restaurant de spécialités;6 ALLEE DE LA BOURGONNETTE;35000 RENNES;-1.6347334;48.0951623
RESTAURANT AJYS;Restaurant traditionnel;Camping du P'Tit Bois;35430 ST JOUAN DES GUERETS;-1.986336;48.609901
RESTAURANT ALADDIN;Restaurant de spécialités;36 Rue Vasselot;35000 RENNES;-1.6766867;48.1085148
RESTAURANT ALINEA RENNES CAP MALO;Restaurant traditionnel;LIEU DIT LE TIERCENDRE;35520 LA MEZIERE;-1.7519146029996;48.217556542
RESTAURANT AMIRAL;Restaurant traditionnel;GARE MARITIME DE LA BOURSE;35400 ST MALO;-2.0235099999999;48.6446
RESTAURANT ARRIBA PIZZA;Restaurant traditionnel;1 RUE DU CENTRE;35590 ST GILLES;-1.8296446629349;48.154149
RESTAURANT ATOUT COEUR;Restaurant traditionnel;2 Rue de Dol;35111 LA FRESNAIS;-1.8443719;48.588393
RESTAURANT AU CELLIER;Restaurant traditionnel;29 RUE VICTOR HUGO;35133 LANDEAN;-1.1524869476888;48.41390216986
RESTAURANT AU CHANT DE L ALOUETTE;Restaurant traditionnel;19 Rue du Châtelet;35560 BAZOUGES LA PEROUSE;-1.5744867;48.4250407
RESTAURANT AU COIN MALOUIN;Restaurant traditionnel;22 RUE DE LA HERSE;35400 ST MALO;-2.0248705109643;48.648498087426
RESTAURANT AU COMPOIR VENITIEN;Restaurant traditionnel;ALLEE MORVAN LEBESQUE;35700 RENNES;-1.6330275250968;48.131081353783
RESTAURANT AU GOUT DES HOTES;Restaurant traditionnel;8 PLACE RALLIER DU BATY;35000 RENNES;-1.6813592710197;48.112888746321
RESTAURANT AU GRE DES VENTS;Restaurant traditionnel;23 Rue du Port;35430 LA VILLE ES NONAIS;-1.96811;48.5367687
RESTAURANT AU JARDIN DU BOURG;Restaurant traditionnel;6 rue Duquesne;35260 CANCALE;-1.8508437;48.6765422
RESTAURANT AU P'TIT BOUCHON;Restaurant traditionnel;51 rue Georges Clémenceau;35400 St Malo;-2.0177472;48.6394649
RESTAURANT AU P'TIT CREUX;Restaurant de spécialités;17 PLACE SAINT MELAINE;35740 PACE;-1.7734708914825;48.147855830977
RESTAURANT AU PALAIS D'ASIE;Restaurant de spécialités;1 PLACE DU GRANIER;35135 CHANTEPIE;-1.6210273513763;48.087799794622
RESTAURANT AU PETIT GRENIER;Restaurant traditionnel;5 RUE DU CHAPITRE;35000 RENNES;-1.6821536122684;48.111039565641
RESTAURANT AU VIEUX SAFRAN;Restaurant traditionnel;2 QUAI GAMBETTA;35260 CANCALE;-1.85355;48.671195510964
RESTAURANT AU VIEUX VITRE;Restaurant traditionnel;1 RUE D EMBAS;35500 VITRE;-1.193324;48.13843
RESTAURANT AUX P'TITS OIGNONS;Restaurant traditionnel;rue Newton;35760 Montgermont;-1.7065412;48.1546078
RESTAURANT AVAL DOUAR;Restaurant traditionnel;14 Rue Georges Clémenceau;35400 ST MALO;-2.0182727;48.6399655
RESTAURANT BAILA PIZZA;Restaurant de spécialités;8 rue de la Briqueterie;35500 VITRE;-1.2102683;48.1093631
RESTAURANT BLOND CHICKEN COFFEE;Snack (sur place);13 Place du Colombier;35000 RENNES;-1.6787485;48.1048487
RESTAURANT BRASSERIE LA TETE NOIRE;Restaurant traditionnel;23 Place Aristide Briand;35300 FOUGERES;-1.2016616;48.3536694
RESTAURANT BRIOCHE DOREE;Fast-food;ZAC de la Giraudais;35740 Pace;-1.7681536;48.1411656
RESTAURANT BUFFALO GRILL;Restaurant traditionnel;ZAC LA RIGOURDIERE;35510 CESSON SEVIGNE;-1.5887375;48.1128589
RESTAURANT BUFFALO GRILL;Restaurant traditionnel;LIEU DIT LA QUEUE DE LOUP;35520 LA MEZIERE;-1.7298154;48.2049132
RESTAURANT BUFFALO GRILL;Restaurant traditionnel;5 RUE DES FRANCAIS LIBRES;35300 FOUGERES;-1.1797191;48.3460875
RESTAURANT BUFFALO GRILL;Restaurant traditionnel;BD JEAN BAPTISTE LELIEVRE;35600 REDON;-2.0676339;47.6718451
RESTAURANT BUFFALO GRILL;Restaurant traditionnel;LA VILLE ES MENIERS;35730 PLEURTUIT;-2.0638185;48.6174663
RESTAURANT BUFFALO GRILL;Restaurant traditionnel;12 IMPASSE DE LA PEUPLERAIE;35400 ST MALO;-1.9914459199996;48.624245804001
RESTAURANT CAFE LEFFE;Restaurant traditionnel;12 PLACE DE LA GARE;35000 RENNES;-1.6724003366611;48.104580530671
RESTAURANT CAFÉ SIMON;Restaurant traditionnel;2 RUE JACQUES CARTIER;35400 ST MALO;-2.0239566;48.649068
RESTAURANT CAP CHAUSEY;Restaurant traditionnel;5 Rue Eugène et Alfred Feyen;35260 CANCALE;-1.8685866;48.6789386
RESTAURANT CAP CHAUSEY;Restaurant traditionnel;5 RUE EUGENE ET ALFRED FEYEN;35260 CANCALE;-1.864805;48.678705758197
RESTAURANT CARTE SUR TABLE;Restaurant traditionnel;16 RUE DU BORD DE MER;35114 ST BENOIT DES ONDES;-1.8493359445148;48.618676646114
RESTAURANT CASA COSI;Restaurant traditionnel;43 Boulevard Douville;35400 ST MALO;-2.0082164;48.6308952
RESTAURANT CASTEL JHULY;Restaurant traditionnel;1 parc du Castel;35220 Chateaubourg;-1.414259;48.104509
RESTAURANT CHAWP SHOP;Restaurant de spécialités;13 RUE DE PENHOET;35000 RENNES;-1.6809153316694;48.113703701916
RESTAURANT CHEZ CARO;Restaurant traditionnel;1 Rue Saint-Louis;35000 RENNES;-1.6817102;48.1143635
RESTAURANT CHEZ JEAN-JEAN;Restaurant traditionnel;9 Place de la République;35800 DINARD;-2.0562148;48.6333822
RESTAURANT CHEZ JULIEN;Brasserie;6 place du Calvaire;35260 CANCALE;-1.8561416;48.6705785
RESTAURANT CHEZ KUB;Restaurant traditionnel;20 RUE DU CHAPITRE;35000 RENNES;-1.6829622398003;48.111126485429
RESTAURANT CHEZ LES GARCONS;Restaurant traditionnel;21 Rue du Chapitre;35000 RENNES;-1.6831164;48.1111056
RESTAURANT CHEZ LES GARÇONS;Restaurant traditionnel;8 RUE GEORGES DOTTIN;35000 RENNES;-1.6830898848174;48.111029245629
RESTAURANT CHEZ MA POMME;Restaurant traditionnel;6 RUE YVES VERNEY;35800 DINARD;-2.0557165695365;48.634664206503
RESTAURANT CHEZ MARGOT;Restaurant de spécialités;Centre Commercial Alma;35200 Rennes;-1.6654261;48.0906507
RESTAURANT CHEZ MICHEL;Restaurant de spécialités;124 Chaussée du Sillon;35400 ST MALO;-2.0051933;48.6553579
RESTAURANT CHEZ VICTOR;Restaurant traditionnel;8 QUAI THOMAS;35260 CANCALE;-1.8648049999999;48.678705758
RESTAURANT CHEZ ZANZAN;Restaurant traditionnel;13 Rue de Penhoët;35000 RENNES;-1.6809038;48.1137274
RESTAURANT COT' A L'OS;Brasserie;10 RUE DU BIGNON;35000 RENNES;-1.6356014686364;48.096745554533
RESTAURANT CREPE ET COQUILLAGE;Restaurant traditionnel;21 Quai Gambetta;35260 CANCALE;-1.8553212;48.6705623
RESTAURANT CULTUREL CHINOIS;Restaurant de spécialités;21 RUE DE REDON;35000 RENNES;-1.6908629239996;48.105122846
RESTAURANT CÔTÉ SOLEIL GRILL / PLANCHA;Restaurant traditionnel;2 B PLACE DE LA REPUBLIQUE;35800 DINARD;-2.0564314589996;48.633591437
RESTAURANT DAO VIEN;Restaurant de spécialités;11 rue des Bas Sablons;35400 St Malo;-2.0191367;48.637481
RESTAURANT DAO VIEN;Restaurant de spécialités;10 RUE DE LA BALUE;35400 ST MALO;-2.0053716826704;48.628939287235
RESTAURANT DE BRETAGNE;Restaurant traditionnel;10 PLACE DU PRESIDENT CARNOT;35300 FOUGERES;-1.2004542135726;48.355164733279
RESTAURANT DE L'ABBAYE;Snack (sur place);2 avenue du Chevalier Ponthus;35380 Paimpont;-2.173462;48.0186968
RESTAURANT DE LA GARE BRUZ;Restaurant traditionnel;43 AVENUE JULES TRICAULT;35170 BRUZ;-1.7497003099996;48.028221464
RESTAURANT DE LA MER;Restaurant traditionnel;23 RUE DE LA MAIRIE;35960 LE VIVIER SUR MER;-1.7748347642018;48.60298985333
RESTAURANT DE LA PLACE;Restaurant traditionnel;12 rue des Cordiers;35400 St Malo;-2.0242521;48.6482449
RESTAURANT DE LA RANCE;Restaurant traditionnel;7 Rue Saint-Guillaume;35730 PLEURTUIT;-2.0583444;48.5795872
RESTAURANT DEDE DI TREVI;Restaurant de spécialités;32 RUE SAINT MELAINE;35000 RENNES;-1.6762735058284;48.114819565641
RESTAURANT DEL ARTE;Restaurant de spécialités;LA GIRAUDAIS;35740 PACE;-1.7685980023135;48.139870407571
RESTAURANT DES LACS;Restaurant traditionnel;16 rue des Lacs;35500 Cornille;-1.307321;48.080276
RESTAURANT DES REMPARTS;Restaurant traditionnel;17 RUE JACQUES CARTIER;35400 ST MALO;-2.0234227220267;48.64985378712
RESTAURANT DJURDJURA CHEZ FERHAT;Restaurant de spécialités;3 rue de la Vieille Boucherie;35400 St Malo;-2.0256089;48.648356
RESTAURANT DU CASINO BARRIERE DINARD;Restaurant traditionnel;4 BOULEVARD WILSON;35800 DINARD;-2.0531548949996;48.635206946
RESTAURANT DU DINARD PLAGE;Restauration rapide;3-4 PLAGE DE L ECLUSE;35800 DINARD;-2.0567901;48.6371646
RESTAURANT DU PARC;Restaurant traditionnel;Rue du Pigeon Blanc;35133 LECOUSSE;-1.2281404;48.352588
RESTAURANT EL NEGOCIAN;Restaurant de spécialités;6 Rue du Pré Botté;35000 RENNES;-1.6795451;48.1093286
RESTAURANT ENVIE DE CREPES;Restaurant traditionnel;3 Boulevard Châteaubriand;35400 ST MALO;-1.9890355;48.6624265
RESTAURANT EPI C TOU;Restaurant traditionnel;1 Boulevard Châteaubriand;35400 ST MALO;-1.9889314;48.662442
RESTAURANT ERIK' S;Restaurant traditionnel;Camping le P Tit bois;35430 St Jouan Des Guerets;-1.986336;48.609901
RESTAURANT ESPACE BELLEVUE;Restaurant traditionnel;ZA de Bellevue les Rouaults;35310 Breal Sous Montfort;-1.864231;48.048439
RESTAURANT ET SERVICES D AUTOROUTES;Fast-food;ROUTE NATIONALE 12;35590 ST GILLES;-1.8297219609996;48.152950213001
RESTAURANT ETOILE DE SAINT MALO;Restaurant traditionnel;2 Boulevard de l' Espérance;35400 ST MALO;-1.99089;48.6487281
RESTAURANT EURASIE;Restaurant traditionnel;33 Rue Vasselot;35000 RENNES;-1.6771784;48.1086266
RESTAURANT FALAFEL;Restaurant traditionnel;16 RUE SAINT MALO;35000 RENNES;-1.6808228592821;48.115998
RESTAURANT FELIX;Restaurant traditionnel;16 RUE D ISLY;35000 RENNES;-1.6777320333255;48.106119520399
RESTAURANT FISH AND CHIPS;Snack (sur place);83 Boulevard de Rochebonne;35400 ST MALO;-1.9893109;48.6630877
RESTAURANT FLUNCH;Self-service, cafétéria (sur place);RUE JULES VALLES;35000 RENNES;-1.7074290278608;48.105332606771
RESTAURANT GARGANTUA;Restaurant traditionnel;28 RUE DU GENERAL LECLERC;35580 GUICHEN;-1.7961335568988;47.967739878989
RESTAURANT GLACES ET GOURMANDISES;Snack (sur place);2 B Rue du Maréchal Leclerc;35800 DINARD;-2.0535883;48.6349243
RESTAURANT GOURMET WOK;Restaurant traditionnel;Avenue du Commerce;35430 ST JOUAN DES GUERETS;-1.971003;48.6019997
RESTAURANT GRILL COURTEPAILLE;Restaurant traditionnel;64 RUE DE LA RIGOURDIERE;35510 CESSON SEVIGNE;-1.5759504;48.1166293
RESTAURANT GRILL COURTEPAILLE;Restaurant traditionnel;LIEU DIT AUGE DE PIERRE;35760 ST GREGOIRE;-1.683146;48.153561
RESTAURANT GRILL COURTEPAILLE;Restaurant traditionnel;BOULEVARD DE LA GIRAUDAIS;35740 PACE;-1.764857;48.1379914
RESTAURANT GRILL LA PALMERAIE;Restaurant traditionnel;6 ALLEE DES ROSIERS;35480 GUIPRY;-1.8433146833342;47.789537971695
RESTAURANT HANAKO SUSHI;Restaurant de spécialités;8 B BOULEVARD PIERRE LANDAIS;35500 VITRE;-1.2085512799065;48.120590514571
RESTAURANT HAO HENG;Restaurant traditionnel;9 Rue Garengeot;35500 VITRE;-1.212591;48.1244506
RESTAURANT HAPPY PIZZA;Restaurant de spécialités;36 B route nationale;35650 Le Rheu;-1.769382;48.0950878
RESTAURANT IKEA RENNES;Restaurant traditionnel;AVENUE DES TOUCHES;35743 PACE CEDEX;-1.7646628;48.1406216
RESTAURANT IL TOSCANO;Restaurant de spécialités;LIEU DIT LES CARREAUX;35520 LA MEZIERE;-1.7416134461702;48.211055536173
RESTAURANT ILE AUX GRILLADES;Restaurant traditionnel;15 Rue d' Enfer;35600 REDON;-2.0853721;47.6498516
RESTAURANT INDIA;Restaurant de spécialités;41 RUE SAINT GEORGES;35000 RENNES;-1.6754060954758;48.11192935054
RESTAURANT JARDIN DE CHINE;Restaurant de spécialités;;35520 LA MEZIERE;-1.754105;48.219363
RESTAURANT KER SUZANNE;Restaurant traditionnel;3 PLACE DU MARCHE AUX LEGUMES;35400 ST MALO;-2.0256033825957;48.647931653067
RESTAURANT KFC CESSON SEVIGNE;Fast-food;2 RUE DU TAILLIS;35510 CESSON SEVIGNE;-1.6225515759996;48.114672427
RESTAURANT L AUBERGE DU BLAVON;Restaurant traditionnel;;35137 BEDEE;-1.943328;48.179645
RESTAURANT L AVENTURE;Restaurant traditionnel;4 Rue Yves Verney;35800 DINARD;-2.0557272;48.6347536
RESTAURANT L ETAGE;Restaurant traditionnel;12 rue Rallier du Baty;35000 Rennes;-1.6813814;48.1128377
RESTAURANT L HERMINE;Restaurant traditionnel;lotissement beauregard;35660 RENAC;-1.9763046;47.7179314
RESTAURANT L INTRA-MUROS;Brasserie;31 AVENUE DE LA VARDE;35400 ST MALO;-1.9769985069996;48.681843569
RESTAURANT L IVY;Restaurant traditionnel;7 RUE DES AUGUSTINS;35500 VITRE;-1.2165283728347;48.124739257722
RESTAURANT L' ATYPIC;Restaurant de spécialités;14 Rue Yves Verney;35800 DINARD;-2.0561848;48.6343038
RESTAURANT L' EOLIENNE;Restaurant traditionnel;5 Rue du Lotier des Marais;35600 STE MARIE;-2.001438;47.694652
RESTAURANT L' OLIVETTO;Restaurant traditionnel;32 RUE DAUPHINE;35400 ST MALO;-2.018482290611;48.638768814877
RESTAURANT L'ABRI COTIER;Restaurant traditionnel;28 quai Gambetta;35260 Cancale;-1.8532684;48.6711965
RESTAURANT L'ABRI DES FLOTS;Restaurant traditionnel;6 place de la République;35800 Dinard;-2.0564531;48.6336659
RESTAURANT L'ABRI DES FREVES;Restaurant traditionnel;2 B Rue de la Plage;35120 CHERRUEIX;-1.7087044;48.6064877
RESTAURANT L'ABSINTHE;Restaurant traditionnel;1 RUE DE L ORME;35400 ST MALO;-2.0248389615818;48.648173461582
RESTAURANT L'ABSINTHE CAFE;Restaurant traditionnel;1 Rue de l' Orme;35400 ST MALO;-2.0247165;48.6481181
RESTAURANT L'ADRESSE;Restaurant traditionnel;32 Cours de la Vilaine;35510 CESSON SEVIGNE;-1.6073314;48.1159082
RESTAURANT L'ALBATROS;Snack (sur place);plage du Port Hue;35800 St Briac Sur Mer;-2.132691;48.619354
RESTAURANT L'AMARYLLIS;Restaurant traditionnel;8 rue de Dol;35960 Le Vivier Sur Mer;-1.7742477;48.6020681
RESTAURANT L'AMIDON;Restaurant traditionnel;64 RUE DE RENNES;35340 LIFFRE;-1.5110362;48.2132001
RESTAURANT L'AMIRAL;Restaurant traditionnel;2 BD DE LA TOUR D AUVERGNE;35000 RENNES;-1.6845351335045;48.108014329448
RESTAURANT L'ANGELUS;Restaurant traditionnel;12 RUE DE LA GROTTE;35134 COESMES;-1.4408525481562;47.882586268942
RESTAURANT L'ANTRE COTE;Restaurant traditionnel;9 Rue de Montigné;35132 VEZIN LE COQUET;-1.7434905;48.1057091
RESTAURANT L'ANTRE-COTE;Restaurant traditionnel;9 Rue de Montigné;35132 VEZIN LE COQUET;-1.7434905;48.1057091
RESTAURANT L'APPART DE LOIC;Restaurant traditionnel;67 T bd de la Tour d Auvergne;35000 Rennes;-1.6841523;48.1028634
RESTAURANT L'ARLEQUIN;Restaurant traditionnel;4 RUE DE PARIS;35330 MAURE DE BRETAGNE;-1.9903647886491;47.890749478216
RESTAURANT L'ARRIÈRE COUR;Restaurant traditionnel;18 quai gambetta;35260 CANCALE;-1.8548385709996;48.671016734
RESTAURANT L'ATELIER DES GOURMETS;Restaurant de spécialités;12 rue Nantaise;35000 Rennes;-1.6855125;48.1114586
RESTAURANT L'ATRE;Restaurant traditionnel;210 Route de Sainte-Foix;35000 RENNES;-1.669289;48.1114576
RESTAURANT L'ATRE;Restaurant traditionnel;7 esp du Commandant Menguy;35400 St Malo;-2.0229852;48.6353511
RESTAURANT L'AVIRON;Restaurant traditionnel;9 PLACE DU CALVAIRE;35260 CANCALE;-1.8563144192394;48.670436137111
RESTAURANT L'EMERAUDE DE LA BAIE;Restaurant traditionnel;25 rue de Saint-Malo;35120 St Broladre;-1.6554489;48.5874197
RESTAURANT L'ENTRE DEUX VERRES;Restaurant traditionnel;7 Rue des Grands Degrés;35400 ST MALO;-2.0237429;48.6484011
RESTAURANT L'ENTRE-DEUX;Restaurant traditionnel;LE RACHAPT;35240 MARCILLÉ-ROBERT;-1.359359;47.9455401
RESTAURANT L'ESCALE;Restaurant de spécialités;2 Quai Gambetta;35260 CANCALE;-1.8534764;48.6712533
RESTAURANT L'ESCALE DES BOUCHOTS;Restaurant traditionnel;22 RUE DU BOUT DE LA VILLE;35120 HIREL;-1.8260570430204;48.610317572855
RESTAURANT L'ESCAPADE;Restaurant traditionnel;2 Place du Souvenir;35350 ST MELOIR DES ONDES;-1.9045675;48.6371002
RESTAURANT L'ESPERANCE;Restaurant traditionnel;21 boulevard Rochers;35500 Vitre;-1.2054872;48.1206741
RESTAURANT L'ESTAMINETTES;Restaurant traditionnel;120 RUE DE LA PINTERIE;35300 FOUGERES;-1.2082696131277;48.354612885086
RESTAURANT L'EVENTAIL;Restaurant traditionnel;PORTE SAINT THOMAS;35400 ST MALO;-2.0242957349946;48.650755133235
RESTAURANT L'HACIENDA;Restaurant de spécialités;33 Rue des Douves;35600 REDON;-2.0864971;47.6493883
RESTAURANT L'HALTE GOURMANDE;Restaurant traditionnel;22 Place de la République;35300 FOUGERES;-1.1946774;48.3493297
RESTAURANT L'HIPPOCAMPE;Restaurant traditionnel;38 RUE DE LA FORET;35300 FOUGERES;-1.2002081071325;48.356169642795
RESTAURANT L'ITALIA TRATORIA;Restaurant de spécialités;32 Rue Saint-Georges;35000 RENNES;-1.675827;48.1118605
RESTAURANT L'O A LA BOUCHE;Restaurant de spécialités;1 RUE MICHEL DE LA BARDELIERE;35400 ST MALO;-1.9911498499754;48.635151927509
RESTAURANT L'OLIVIER;Restaurant traditionnel;60 CHAUSSEE DU SILLON;35400 ST MALO;-2.0118746;48.6531708
RESTAURANT L'ORANGERIE BIS;Restaurant traditionnel;ZI de l étang du Diable;35760 St Gregoire;-1.683146;48.153561
RESTAURANT L'OREE DU PARC;Restaurant traditionnel;L Oree du Parc;35190 Becherel;-1.945772;48.296455
RESTAURANT L'ORH-ANN;Restaurant traditionnel;Camping du Petit Bois;35430 ST JOUAN DES GUERETS;-1.986828;48.610756
RESTAURANT L'ORIGAN;Restaurant traditionnel;Rue de Rennes;35650 LE RHEU;-1.7819266;48.0976547
RESTAURANT L'OS OU L'ARETE;Restaurant traditionnel;21 RUE SAINT GEORGES;35000 RENNES;-1.6760039562871;48.11188435054
RESTAURANT L'OSMOSE;Restaurant traditionnel;39 RUE DES DOUVES;35600 REDON;-2.0866127559996;47.649209554
RESTAURANT L'UN DES SENS;Restaurant traditionnel;37 Rue de Dinard;35780 LA RICHARDAIS;-2.0330624;48.6049147
RESTAURANT LA BELLA ITALIA;Restaurant traditionnel;3 RUE DES ORBETTES;35400 ST MALO;-2.02412;48.6495002
RESTAURANT LA BELLE DE VILAINE;Restaurant traditionnel;les Nielles;35350 St Meloir Des Ondes;-1.8631714;48.630344
RESTAURANT LA BISQUINE;Restaurant gastronomique;21 rue Jacques Cartier;35400 St Malo;-2.0232621;48.6500742
RESTAURANT LA BOUCHERIE;Restaurant traditionnel;Parc Edonia;35760 ST GREGOIRE;-1.683146;48.153561
RESTAURANT LA BOUCHERIE;Restaurant traditionnel;31 COURS DE LA VILAINE;35510 CESSON SEVIGNE;-1.6098108635813;48.114563658607
RESTAURANT LA BOUCHERIE;Restaurant traditionnel;31 COURS DE LA VILAINE;35510 CESSON SEVIGNE;-1.6098108635813;48.114563658607
RESTAURANT LA BOUCHERIE SAINT-MALO;Restaurant traditionnel;Rue du Général Patton;35400 ST MALO;-1.9957813;48.622483
RESTAURANT LA BOURGONNETTE;Restaurant traditionnel;267 Rue de Châteaugiron;35000 RENNES;-1.6315042;48.0932583
RESTAURANT LA CABANE A HUITRES;Restaurant de spécialités;7 RUE ERNEST LAMORT;35260 CANCALE;-1.8623032857349;48.668250478216
RESTAURANT LA CALE;Restaurant traditionnel;5 Quai de Solidor;35400 ST MALO;-2.0227829;48.6354297
RESTAURANT LA CANTINA;Restaurant traditionnel;10 Rue Rallier du Baty;35000 RENNES;-1.6811765;48.1128627
RESTAURANT LA CANTINA;Restaurant de spécialités;21 BOULEVARD WILSON;35800 DINARD;-2.053323;48.63514954732
RESTAURANT LA CANTINE DE FRANÇOIS;Restaurant traditionnel;la Bretonnière;35220 CHATEAUBOURG;-1.3902834;48.1055335
RESTAURANT LA CANTINE DU CORSAIRE;Restaurant traditionnel;10 RUE DU PUITS AUX BRAIES;35400 ST MALO;-2.024793;48.648717
RESTAURANT LA CARIOCA;Restaurant traditionnel;11 AVENUE JEAN JANVIER;35000 RENNES;-1.673414100179;48.107616045242
RESTAURANT LA CASA;Restaurant de spécialités;29 Avenue Maréchal Leclerc;35310 MORDELLES;-1.8473249;48.0731127
RESTAURANT LA CASA;Restaurant de spécialités;29 RUE SAINT GEORGES;35000 RENNES;-1.6758464562871;48.11190235054
RESTAURANT LA CASA BORGHESE;Restaurant traditionnel;5 Avenue Edouard VII;35800 DINARD;-2.0578322;48.6333123
RESTAURANT LA CLOSERIE DES HORTENSIAS;Restaurant traditionnel;Haute Forêt;35310 Breal Sous Montfort;-1.858421;48.069258
RESTAURANT LA CONCHEE;Restaurant traditionnel;1 Rue des Orbettes;35400 ST MALO;-2.0237443;48.6494075
RESTAURANT LA COUR DU TEMPLE;Restaurant de spécialités;5 rue Châteaubriand;35270 Combourg;-1.7526887;48.4080625
RESTAURANT LA COURSIVE;Restaurant traditionnel;9 place de la République;35800 Dinard;-2.0562148;48.6333822
RESTAURANT LA CREMALLERE;Restaurant traditionnel;12 rue Saint-Pierre;35150 Janze;-1.4969331;47.9598573
RESTAURANT LA CREPERIE DU MARCHE;Restaurant de spécialités;1 AVENUE ALPHONSE LEGAULT;35170 BRUZ;-1.7461371268394;48.024880292256
RESTAURANT LA CUILLÈRE EN BOIS;Restaurant traditionnel;33 RUE DES DOUVES;35600 REDON;-2.0865283864621;47.6493739839
RESTAURANT LA DEMEURE D'OGUST;Restaurant traditionnel;LIEU DIT GOUAIRIERE;35630 HEDE;-1.76201;48.32053
RESTAURANT LA DENT CREUSE;Restaurant traditionnel;7 Place de la Poissonnerie;35400 ST MALO;-2.0245026;48.6498408
RESTAURANT LA DUCHESSE ANNE;Restaurant gastronomique;5 PLACE GUY LA CHAMBRE;35409 ST MALO CEDEX;-2.0232629691846;48.650415715794
RESTAURANT LA FABRIQUE SAINT GEORGES;Restaurant de spécialités;36 Rue Saint-Georges;35000 RENNES;-1.6757187;48.1118719
RESTAURANT LA FAVOLA;Restaurant traditionnel;35 Rue de Bray;35510 CESSON SEVIGNE;-1.6126818;48.1083119
RESTAURANT LA FELICITA;Restaurant traditionnel;25 RUE DE L ETANG AU DIABLE;35760 ST GREGOIRE;-1.6852971145118;48.136613012473
RESTAURANT LA FERME DES NIELLES;Snack (sur place);les Nielles;35350 ST MELOIR DES ONDES;-1.8631714;48.630344
RESTAURANT LA FERME DU LUGUEN;Restaurant traditionnel;LE HAUT LUGUEN;35330 MAURE DE BRETAGNE;-1.9504649624639;47.866324993744
RESTAURANT LA FLAMBEE;Restaurant traditionnel;22 AVENUE D ARMORIQUE;35830 BETTON;-1.6423577026083;48.182107368861
RESTAURANT LA FLAMBÉE;Restaurant de spécialités;22 AVENUE D ARMORIQUE;35830 BETTON;-1.6423461709996;48.182107189
RESTAURANT LA FLEUR DE SEL;Restaurant traditionnel;20 rue de l Eglise;35330 Maure De Bretagne;-1.9915905;47.8908106
RESTAURANT LA FONTAINE AUX PERLES;Restaurant gastronomique;96 RUE DE LA POTERIE;35200 RENNES;-1.6431425;48.0936018
RESTAURANT LA FORESTIERE;Restaurant de spécialités;boulevard de Saint-Cast;35800 St Lunaire;-2.1163957;48.6355026
RESTAURANT LA FORESTIERE;Restaurant de spécialités;192 Rue de Fougères;35700 RENNES;-1.6568463;48.1249347
RESTAURANT LA FOURCHETTE DE LEONIE;Restaurant traditionnel;4 PLACE DE LA ROULAIS;35400 ST MALO;-2.0125954067459;48.633745368861
RESTAURANT LA FREGATE;Restaurant traditionnel;6 place du Calvaire;35260 Cancale;-1.8561416;48.6705785
RESTAURANT LA GOURMANDISE;Restaurant traditionnel;28 B Rue d' Embas;35500 VITRE;-1.21543;48.124746
RESTAURANT LA GOURMANDISE;Restaurant traditionnel;2 rue des Bas Sablons;35400 St Malo;-2.0185063;48.6384349
RESTAURANT LA GRABOTAIS;Restaurant traditionnel;4 rue Ceinte;35120 Dol De Bretagne;-1.7534966;48.5504908
RESTAURANT LA GRANGE DE BRAY;Restaurant traditionnel;40 Rue de Bray;35510 CESSON SEVIGNE;-1.6152477;48.106716
RESTAURANT LA GRIOTTE;Restaurant traditionnel;42 RUE DU DOCTEUR LEON;35740 PACE;-1.792365034422;48.149650667205
RESTAURANT LA GUÉNAUDIÈRE;Self-service, cafétéria (sur place);6 R Comb d' Afrique du Nord;35300 FOUGERES;-1.204626;48.3515609
RESTAURANT LA HOGUETTE;Restaurant traditionnel;2 av Révérend Père Umbricht;35400 St Malo;-1.9963659;48.6571825
RESTAURANT LA HOULE;Restaurant traditionnel;4 PLACE DU CALVAIRE;35260 CANCALE;-1.8559248681689;48.670626111576
RESTAURANT LA MAISON BLANCHE;Restaurant traditionnel;2 quai admin. chef thomas;35260 CANCALE;-2.9326435;48.2020471
RESTAURANT LA MAMMA ROMA;Restaurant traditionnel;11 Place du Champ Jacquet;35000 RENNES;-1.6803515;48.1130673
RESTAURANT LA MANIVELLE;Restaurant traditionnel;6 Rue de la Poste;35550 LOHEAC;-1.882631;47.8664469
RESTAURANT LA MARELLE;Restaurant traditionnel;13 Place des Marelles;35135 CHANTEPIE;-1.620882;48.0887376
RESTAURANT LA MARINA;Restaurant traditionnel;76 RUE DE VANNES;35600 REDON;-2.0913278047492;47.64412224785
RESTAURANT LA MARINE;Restaurant traditionnel;23 RUE DE LA MARINE;35260 CANCALE;-1.8492646;48.6751734
RESTAURANT LA MENTHE POIVRÉE;Restaurant traditionnel;14 Rue Emile Bridel;35640 MARTIGNE FERCHAUD;-1.3180647;47.8308234
RESTAURANT LA MERE MADELEINE;Restaurant de spécialités;33 Rue Saint Georges;35000 RENNES;-1.6757387;48.1119921
RESTAURANT LA METAIRIE DE BEAUMONT;Restaurant traditionnel;Beaumont;35310 MORDELLES;-1.807939;48.081465
RESTAURANT LA MINOTERIE;Restaurant traditionnel;Le port;35480 GUIPRY MESSAC;-1.8214125393989;47.820814026266
RESTAURANT LA MINOTERIE;Restaurant traditionnel;25 QUAI ROBERT SURCOUF;35600 REDON;-2.0895686161922;47.64583463587
RESTAURANT LA NAIADE;Restaurant de spécialités;9 Place du Théâtre;35300 FOUGERES;-1.2027798;48.3547992
RESTAURANT LA P'TITE BOUFFE;Restaurant traditionnel;1 rue des Sources;35140 St Hilaire Des Landes;-1.3571978;48.351683
RESTAURANT LA P'TITE PAUSE;Restaurant traditionnel;41 rue de Rennes;35830 BETTON;-1.6394453;48.1763831
RESTAURANT LA PAILLOTE;Restaurant traditionnel;68 Route de Nantes;35131 PONT PEAN;-1.7030612;48.0139702
RESTAURANT LA PAILLOTE;Restaurant traditionnel;68 ROUTE DE NANTES;35131 PONT PEAN;-1.7029730424721;48.013940986122
RESTAURANT LA PAILLOTE DU PONT;Restaurant traditionnel;LE BAS FOUY;35600 STE MARIE;-2.0302790285781;47.675085125838
RESTAURANT LA PALM'DAY;Restaurant traditionnel;8 RUE YVES VERNEY;35800 DINARD;-2.0560519;48.6344795
RESTAURANT LA PART DES ANGES;Restaurant de spécialités;5 Place de la Croix;35190 BECHEREL;-1.9440564;48.2949146
RESTAURANT LA PATATERIE;Restaurant traditionnel;RUE DU CHESNAY BEAUREGARD;35760 SAINT GREGOIRE;-1.6905153;48.1369765
RESTAURANT LA PATATERIE;Restaurant traditionnel;12 B RUE DE JANZE;35500 VITRE;-1.2160497939996;48.109473843001
RESTAURANT LA PATATERIE;Restaurant de spécialités;Rue Louis Guilloux;35600 REDON;-2.064352;47.6737508
RESTAURANT LA PATATERIE;Restaurant de spécialités;46 RUE DU GENERAL PATTON;35400 ST MALO;-1.9953548409996;48.622351128001
RESTAURANT LA PAULINA;Restaurant traditionnel;31 RUE DU PONANT;35400 ST MALO;-1.9928811;48.6359951
RESTAURANT LA PENSEE GOURMANDE;Restaurant traditionnel;35 rue de la Grève;35800 St Lunaire;-2.1109948;48.6366867
RESTAURANT LA PERGOLA;Restaurant traditionnel;39 avenue Jules Tricault;35170 Bruz;-1.749533;48.0277999
RESTAURANT LA PERLE NOIRE;Restaurant traditionnel;la Guimorais;35350 ST COULOMB;-1.938317;48.688078
RESTAURANT LA PEROUSE;Restaurant traditionnel;5 rue Abbé Pierre Leroy;35500 Montreuil Sous Perouse;-1.2369185;48.1509992
RESTAURANT LA PETITE VILLETTE;Restaurant traditionnel;3 RUE DU BOEL;35770 VERN SUR SEICHE;-1.6037016180968;48.046312623925
RESTAURANT LA PIA''ZA;Snack (sur place);6 place de l Hotel de Ville;35150 JANZE;-1.4989158;47.9593399
RESTAURANT LA PIA''ZA;Snack (sur place);1 rue du Point du Jour;35150 CORPS NUDS;-1.5872028;47.9778607
RESTAURANT LA PLACE;Restaurant traditionnel;8 B PLACE DU CHATEAU;35500 VITRE;-1.2138827;48.1244764
RESTAURANT LA POINTE MONTGERVALA;Restaurant traditionnel;route de Montgerval;35520 La Meziere;-1.73437;48.1999815
RESTAURANT LA PTITE FRINGALE;Restaurant traditionnel;Parc d'Activités de la Vigne;35370 ETRELLES;-1.1973489;48.065324
RESTAURANT LA RESERVE;Restaurant traditionnel;36 RUE DE LA VISITATION;35000 RENNES;-1.6781518679996;48.113973691
RESTAURANT LA ROSE DES SABLES;Restaurant traditionnel;16 Rue du Bord de Mer;35114 ST BENOIT DES ONDES;-1.8494758;48.6186458
RESTAURANT LA SALAMANDE;Restaurant traditionnel;7 AVENUE DE LA GARE;35360 MONTAUBAN DE BRETAGNE;-2.0474677507646;48.198071766028
RESTAURANT LA SOCCA;Restaurant traditionnel;4 Rue Amiral Magon;35400 ST MALO;-2.0176911;48.6375518
RESTAURANT LA SOUPE AUX CHOUX;Restaurant traditionnel;32 rue Notre-Dame;35500 Vitre;-1.2131711;48.1247885
RESTAURANT LA SPERANZA;Restaurant de spécialités;15 Place de l' Eglise;35137 PLEUMELEUC;-1.9192415;48.1845834
RESTAURANT LA TABLE D EUGENIE;Restaurant traditionnel;23 Rue de Plumaugat;35290 ST MEEN LE GRAND;-2.1941752;48.1906042
RESTAURANT LA TABLE D'OSCAR;Restaurant traditionnel;LES ROCHERS;35500 VITRÉ;-1.168625;48.079641
RESTAURANT LA TABLE DE MARIE-FRANCE;Restaurant traditionnel;LA BOE JAVOT;35133 FLEURIGNE;-1.1037290354979;48.369799805457
RESTAURANT LA TABLE DES PERES;Restaurant gastronomique;le château;35150 PIRE SUR SEICHE;-1.4088949999999;48.053685
RESTAURANT LA TABLE DU MARAIS;Restaurant traditionnel;3 place de la Gare;35111 La Fresnais;-1.8440506;48.5942065
RESTAURANT LA TABLE IBERIQUE;Restaurant traditionnel;21 RUE DE FOUGERES;35133 BILLE;-1.2455131902591;48.289280510964
RESTAURANT LA TAVERNE;Restaurant traditionnel;10 Rue de la Loire;35470 BAIN DE BRETAGNE;-2.0842796;47.65188
RESTAURANT LA TAVERNE DE MAITRE KANTER;Restaurant traditionnel;8 boulevard des Talards;35400 St Malo;-2.0085691;48.6467255
RESTAURANT LA TAVERNE DE MAITRE KANTER;Restaurant traditionnel;Impasse de l' Enclos;35132 VEZIN LE COQUET;-1.7403751;48.103875
RESTAURANT LA TAVERNE DU COMMERCE;Restaurant traditionnel;130 chaussée du Sillon;35400 St Malo;-2.0049372;48.6554504
RESTAURANT LA TAVERNE GRECQUE;Restaurant de spécialités;1 RUE DES DAMES;35000 RENNES;-1.6833857164868;48.110581707744
RESTAURANT LA TERRASSE;Restaurant traditionnel;96 Route de Fougères;35510 CESSON SEVIGNE;-1.6075325;48.1457213
RESTAURANT LA TERRASSE;Restaurant traditionnel;33 rue de la Poterie;35131 Chartres De Bretagne;-1.7073343;48.0424046
RESTAURANT LA TERRASSE;Restaurant traditionnel;CENTRE COMMERCIAL;35000 RENNES;-1.6418599516708;48.097519952248
RESTAURANT LA TETE À L'ENVERS;Restaurant traditionnel;14 Rue Nantaise;35000 RENNES;-1.685484;48.1116949
RESTAURANT LA TOMATE;Restaurant de spécialités;9 PLACE DE LA REPUBLIQUE;35800 DINARD;-2.0562148;48.6333822
RESTAURANT LA TOMATE;Restaurant de spécialités;18 RUE SAINT GEORGES;35000 RENNES;-1.6765311530671;48.11178859839
RESTAURANT LA TOULINE;Restaurant de spécialités;6 PLACE DE LA POISSONNERIE;35400 ST MALO;-2.0242574737723;48.649840208437
RESTAURANT LA TOUR DE PIZZ;Restaurant de spécialités;la Ville Rucette;35730 PLEURTUIT;-2.0567872;48.6071196
RESTAURANT LA TOUR DUGUESCLIN;Restaurant traditionnel;RUE DU CHATEAU;35390 GRAND FOUGERAY;-1.7299005998143;47.7228643961
RESTAURANT LA TRIBUNE;Restaurant traditionnel;167 route de Lorient;35000 Rennes;-1.7321059;48.1049669
RESTAURANT LA TUILE;Restaurant de spécialités;AVENUE DE LA MARIONNAIS;35131 CHARTRES DE BRETAGNE;-1.70541;48.040056242423
RESTAURANT LA VICTOIRE;Restaurant traditionnel;47 ROUTE DE FOUGERES;35510 CESSON SEVIGNE;-1.6080142;48.1458921
RESTAURANT LA VILLA;Restaurant traditionnel;8 place du Calvaire;35260 CANCALE;-1.8563038;48.6705021
RESTAURANT LA VILLA;Restaurant de spécialités;1 Place Haigerloch;35530 NOYAL SUR VILAINE;-1.5228292;48.1134994
RESTAURANT LA VILLA SUD;Restaurant traditionnel;47 avenue Jean Janvier;35000 Rennes;-1.6726681;48.1053794
RESTAURANT LA VILLE CARREE;Restaurant traditionnel;65 RUE DU COMMANDANT THOREUX;35800 ST BRIAC SUR MER;-2.130015352213;48.625420609498
RESTAURANT LE MARIN'BOEL;Restaurant traditionnel;18 le Boel;35580 Guichen;-1.755492;47.9917412
RESTAURANT LE 6;Restaurant traditionnel;6 PLACE RALLIER DU BATY;35000 RENNES;-1.681136135582;48.112605817099
RESTAURANT LE BARON ROUGE;Restaurant traditionnel;15/17 RUE DU CHAPITRE;35000 RENNES;-1.6827848695539;48.11105764946
RESTAURANT LE BEAUSEJOUR;Restaurant traditionnel;2 Rue de Saint-Lunaire;35800 DINARD;-2.0687316;48.6358072
RESTAURANT LE BILLOT;Restaurant traditionnel;2 AVENUE DE LA CHAUSSAIRIE;35131 CHARTRES DE BRETAGNE;-1.7124908989996;48.036408628
RESTAURANT LE BISTRONOME;Restaurant traditionnel;87 Avenue Joseph Jan;35170 BRUZ;-1.760415;48.0244149
RESTAURANT LE BISTROT;Restaurant traditionnel;4 rue de la Pinterie;35300 Fougeres;-1.2033679;48.3548222
RESTAURANT LE BISTROT BORIS;Restaurant traditionnel;6 rue Lejamptel;35120 Dol De Bretagne;-1.753407;48.5500467
RESTAURANT LE BISTROT D'ANTRAIN;Restaurant traditionnel;3 B Boulevard de Gaulle;35560 ANTRAIN;-1.4819296;48.4597814
RESTAURANT LE BISTROT DE CONDATE;Restaurant traditionnel;105 rue de Saint-Brieuc;35000 Rennes;-1.7111851;48.1168424
RESTAURANT LE BISTROT DE SOLIDOR;Restaurant traditionnel;1 Place Saint Pierre;35400 ST MALO;-2.0263159;48.6357981
RESTAURANT LE BISTROT DU ROCHER;Restaurant traditionnel;19 rue de Toulouse;35400 ST MALO;-2.0262655;48.6466763
RESTAURANT LE BISTROT SAVEURS;Restaurant traditionnel;26 RUE DU DOCTEUR LEON;35740 PACE;-1.7895515939996;48.149442409
RESTAURANT LE BLAZATA;Restaurant traditionnel;Tournebride;35137 BEDEE;-1.9407559;48.208567
RESTAURANT LE BLAZATA;Restaurant traditionnel;;35137 BEDEE;-1.9407559;48.208567
RESTAURANT LE BOIS BRIAND;Restaurant traditionnel;LIEU DIT LE BOIS BRIAND;35650 LE RHEU;-1.7657371;48.102876
RESTAURANT LE BOMBAY;Restaurant de spécialités;137 RUE DE NANTES;35000 RENNES;-1.6858702;48.1002332
RESTAURANT LE BON ACCUEIL;Restaurant traditionnel;24 PLACE DE L EGLISE;35140 ST OUEN DES ALLEUX;-1.4251060370147;48.328015035223
RESTAURANT LE BORSALINO;Restaurant de spécialités;6 RUE DE LA VIEILLE BOUCHERIE;35400 ST MALO;-2.025658110191;48.648386346933
RESTAURANT LE BOUCHE A OREILLE;Restaurant traditionnel;34 rue Saint-Martin;35500 Balaze;-1.1910369;48.1663061
RESTAURANT LE BOUCHE A OREILLE;Restaurant traditionnel;34 RUE SAINT MARTIN;35500 BALAZE;-1.1908418463846;48.166258526228
RESTAURANT LE BOUCHE À OREILLE;Restaurant traditionnel;57 CHAUSSEE DU SILLON;35400 ST MALO;-2.0049903491546;48.655532891482
RESTAURANT LE BOUJARON;Restaurant traditionnel;1 rue Saint Philippe;35400 ST MALO;-2.0264748;48.6462553
RESTAURANT LE BRAGANZA;Restaurant traditionnel;Port de Roche;35660 LANGON;-1.846006;47.739593
RESTAURANT LE BRUIT QUI COURT;Restaurant traditionnel;40 Rue de la Madeleine;35410 CHATEAUGIRON;-1.5029875;48.0481234
RESTAURANT LE BUFFET;Restaurant traditionnel;53 B rue Nationale;35300 Fougeres;-1.204303;48.3524827
RESTAURANT LE BULOT;Restaurant traditionnel;13 quai de Sébastopol;35400 St Malo;-2.0244004;48.6353154
RESTAURANT LE BYBLOSS;Restaurant traditionnel;13 RUE SAINT MALO;35000 RENNES;-1.6808894;48.1165028
RESTAURANT LE CAFE DE LA BOURSE;Restaurant traditionnel;1 RUE DE DINAN;35400 ST MALO;-2.026240878989;48.646364510964
RESTAURANT LE CAFE DE ST MALO;Restaurant de spécialités;4 PLACE GUY LA CHAMBRE;35400 ST MALO;-1.9750584954832;48.662995853347
RESTAURANT LE CAFE DU COMMERCE;Restaurant traditionnel;8 RUE D ANJOU;35130 LA GUERCHE DE BRETAGNE;-1.2304634865542;47.941562514571
RESTAURANT LE CAFÉ ANGLAIS;Restaurant traditionnel;7 Boulevard Wilson;35800 DINARD;-2.0536524;48.6346974
RESTAURANT LE CAFÉ BRETON;Restaurant traditionnel;14 RUE NANTAISE;35000 RENNES;-1.6855503949449;48.111664557591
RESTAURANT LE CAMBUSIER;Restaurant traditionnel;6 Rue des Cordiers;35400 ST MALO;-2.0243206;48.6477731
RESTAURANT LE CANCAVEN;Restaurant traditionnel;3 place de la République;35800 Dinard;-2.055881;48.6334451
RESTAURANT LE CARLINA;Restaurant traditionnel;281 bd du Général de Gaulle;35800 St Lunaire;-2.1102673;48.6368656
RESTAURANT LE CARRE;Restaurant traditionnel;34 place des Lices;35000 RENNES;-1.684486;48.11282
RESTAURANT LE CASTEL;Restaurant traditionnel;43 RUE DU GUE;35230 NOYAL CHATILLON SUR SEICHE;-1.6675002187085;48.039399932281
RESTAURANT LE CELLIER;Restaurant traditionnel;40 RUE DE LA MADELEINE;35410 CHATEAUGIRON;-1.503028817791;48.04811935054
RESTAURANT LE CHALET BRETON;Restaurant traditionnel;rue de la vallée;35560 Bazouges La Perouse;-1.5734424;48.4275564
RESTAURANT LE CHARLY;Restaurant traditionnel;271 AV GENERAL GEORGE PATTON;35700 RENNES;-1.6609280394137;48.133566083819
RESTAURANT LE CIGALON;Restaurant traditionnel;43 boulevard Douville;35400 St Malo;-2.0082164;48.6308952
RESTAURANT LE COLIGNY;Restaurant traditionnel;5 PLACE DE LA REPUBLIQUE;35500 VITRE;-1.2090021859599;48.12471361449
RESTAURANT LE COLVERT;Restaurant traditionnel;rue de l étang;35630 Hede;-1.7786017;48.3087389
RESTAURANT LE CONQUERANT;Restaurant de spécialités;27 RUE JULES FERRY;35300 FOUGERES;-1.1973628498471;48.350890110191
RESTAURANT LE CONTINENTAL;Restaurant traditionnel;7 rue du Bosphore;35200 RENNES;-1.6784905495412;48.082313460471
RESTAURANT LE COTE ROTIE;Restaurant traditionnel;7 avenue de la Forêt;35340 Liffre;-1.5105775;48.2143387
RESTAURANT LE COUDE A COUDE;Restaurant traditionnel;79 Boulevard de Rochebonne;35400 ST MALO;-1.9890696;48.6629645
RESTAURANT LE COURS DES LICES;Restaurant traditionnel;18 PLACE DES LICES;35000 RENNES;-1.6827551;48.1136345
RESTAURANT LE CROC'O'PIZZ;Snack (sur place);6 LA MENAIS;35580 GUIGNEN;-1.8803597156651;47.912138482404
RESTAURANT LE CROCODILE;Restaurant traditionnel;26 avenue Joseph le Brix;35740 Pace;-1.77276;48.146698
RESTAURANT LE DOL'MENE AUX SAVEURS;Restaurant traditionnel;2 RUE DES PERRONS;35120 DOL DE BRETAGNE;-1.7545133294477;48.550004381903
RESTAURANT LE DRAGON D'OR;Restaurant de spécialités;37 rue Saint-Malo;35000 Rennes;-1.6810119;48.1173779
RESTAURANT LE DUO;Restaurant traditionnel;15 Rue Bahon Rault;35000 RENNES;-1.6840844;48.1332946
RESTAURANT LE FER A CHEVAL;Restaurant traditionnel;25 place du Bon Accueil;35490 Chauvigne;-1.4610881;48.376546
RESTAURANT LE FLEURON;Restaurant traditionnel;73 Avenue André Bonnin;35135 CHANTEPIE;-1.6188438;48.0884488
RESTAURANT LE FOODSHOP;Restaurant traditionnel;43 Grande Rue des Stuarts;35120 DOL DE BRETAGNE;-1.7559735;48.5495007
RESTAURANT LE FRANKLIN;Restaurant traditionnel;4 chaussée du Sillon;35400 St Malo;-2.018086;48.6519329
RESTAURANT LE FULL TIME;Restaurant de spécialités;PLAGE DE L ECLUSE;35800 DINARD;-2.0542799999999;48.6356
RESTAURANT LE FUN PIZZA;Snack (sur place);Place de la Fontaine;35650 LE RHEU;-1.7576002;48.1182028
RESTAURANT LE GALOPIN;Restaurant traditionnel;21 AVENUE JEAN JANVIER;35000 RENNES;-1.6732467038491;48.107049694703
RESTAURANT LE GENTY HOME;Restaurant traditionnel;le Perray;35190 TINTENIAC;-1.8080491;48.2968927
RESTAURANT LE GLACIER;Restaurant traditionnel;plage de l ecluse;35800 Dinard;-2.0567901;48.6371646
RESTAURANT LE GRAND LARGE;Restaurant traditionnel;4 QUAI JACQUES CARTIER;35260 CANCALE;-1.8614546297536;48.668566002222
RESTAURANT LE GRILL;Restaurant traditionnel;35 Rue Poullain Duparc;35000 RENNES;-1.6827082;48.1085378
RESTAURANT LE GRILLADIN;Restaurant traditionnel;1 Rue Alessandro Volta;35500 VITRE;-1.21543;48.124746
RESTAURANT LE HERPIN;Restaurant de spécialités;5 Quai Gambetta;35260 CANCALE;-1.8537045;48.6712466
RESTAURANT LE HOO;Restaurant traditionnel;GUE MARY départementale D29;35760 ST GREGOIRE;-1.6924878769996;48.159794852
RESTAURANT LE HUIT BIS;Restaurant traditionnel;8 B Rue Yves Verney;35800 DINARD;-2.0560519;48.6344795
RESTAURANT LE JARDIN D HIVER;Restaurant traditionnel;20 RUE PIERRE MARCHAND;35530 NOYAL SUR VILAINE;-1.5224745796641;48.113070884529
RESTAURANT LE KARCE INE;Restaurant traditionnel;46 AVENUE MARECHAL LECLERC;35310 MORDELLES;-1.8459739221536;48.073969969473
RESTAURANT LE KASTELLER;Restaurant traditionnel;LE BOURG;35133 LE CHATELLIER;-1.252315;48.414828
RESTAURANT LE KAT'SEASON;Restaurant traditionnel;5 PLACE DU GENERAL LECLERC;35500 VITRE;-1.2098331139996;48.123245025
RESTAURANT LE KER JO ANN;Restaurant de spécialités;;35220 CHATEAUBOURG;-1.405353;48.109406
RESTAURANT LE KHALIFA;Restaurant de spécialités;20 place des Lices;35000 Rennes;-1.6828453;48.1135113
RESTAURANT LE KLEM'S;Restaurant traditionnel;2 rue des Bains;35800 DINARD;-2.0675977;48.6359716
RESTAURANT LE LION D'OR;Restaurant traditionnel;8 RUE DE FOUGERES;35340 LIFFRE;-1.5057973601189;48.214190252294
RESTAURANT LE LOTUS D ASIE;Restaurant traditionnel;3 Rue de Montigné;35132 VEZIN LE COQUET;-1.7414041;48.1055546
RESTAURANT LE LOUVIGNE;Restaurant traditionnel;1 AVENUE DE LA GARE;35420 LOUVIGNE DU DESERT;-1.1315375990825;48.482954612817
RESTAURANT LE MAJESTIC;Restaurant de spécialités;1 place guy la chambre;35400 ST MALO;-2.0231638;48.6502506
RESTAURANT LE MANOIR DU PETIT CORCE;Restaurant traditionnel;le Petit Corce;35410 Nouvoitou;-1.5809568;48.0400717
RESTAURANT LE MARRAKECH;Restaurant de spécialités;75 bd de la Tour d Auvergne;35000 Rennes;-1.6842003;48.1023824
RESTAURANT LE MATOURY;Restaurant traditionnel;113 AVENUE DE LA LIBERATION;35270 COMBOURG;-1.7288719571238;48.417248242022
RESTAURANT LE MEKONG;Restaurant de spécialités;2 Avenue de Lorient;35310 MORDELLES;-1.851322;48.071456
RESTAURANT LE MEKONG;Restaurant de spécialités;13 Rue de Rennes;35340 LIFFRE;-1.5074477;48.2139081
RESTAURANT LE MEKONG;Restaurant de spécialités;2 AVENUE DE LORIENT;35310 MORDELLES;-1.8512713338912;48.071398421317
RESTAURANT LE MEKONG;Restaurant traditionnel;180 BIS RUE DE FOUGÈRES;35000 RENNES;-1.6578412811472;48.124493811818
RESTAURANT LE METROPOLITAIN;Fast-food;4 RUE DE NEMOURS;35000 RENNES;-1.6802135568988;48.109588323619
RESTAURANT LE MOULARD D'OGUST;Restaurant traditionnel;avenue de la Flaudaie;35400 St Malo;-1.9956291;48.6245401
RESTAURANT LE MOULIN D'APIGNE;Restaurant traditionnel;MOULIN D APIGNE;35650 LE RHEU;-1.7476199999999;48.09466
RESTAURANT LE MOULIN DE LA FORÊT;Restaurant traditionnel;Moulin de la Forêt;35560 BAZOUGES LA PEROUSE;-1.5670651;48.4842898
RESTAURANT LE MOULIN DE LA GALETTE;Restaurant traditionnel;la Costardais;35540 Miniac Morvan;-1.914355;48.52923
RESTAURANT LE MYLENA;Restaurant de spécialités;43 grande rue des Stuarts;35120 Dol De Bretagne;-1.7559735;48.5495007
RESTAURANT LE NARVAL;Restaurant traditionnel;20 QUAI GAMBETTA;35260 CANCALE;-1.854909130042;48.670983920913
RESTAURANT LE P'TIT BAIGNEUR;Restaurant traditionnel;301 BOULEVARD DU GENERAL DE GAULLE;35800 ST LUNAIRE;-2.1106388;48.6369462
RESTAURANT LE P'TIT BAIGNEUR;Restaurant traditionnel;301 BOULEVARD DU GENERAL DE GAULLE;35800 ST LUNAIRE;-2.11055780322;48.636920682209
RESTAURANT LE P'TIT FOURNEAU;Restaurant traditionnel;Ccial de Beaugé;35340 LIFFRE;-1.5006511;48.2249594
RESTAURANT LE PAGNOL;Restaurant traditionnel;1 T AVENUE DU GENERAL DE GAULLE;35170 BRUZ;-1.7459783119626;48.023770892867
RESTAURANT LE PALAIS D'ASIE;Restaurant de spécialités;1 rue des Marins;35400 St Malo;-2.0248085;48.6488058
RESTAURANT LE PAPARAZZI;Restaurant traditionnel;42 Rue de la Grève;35800 ST LUNAIRE;-2.1111953;48.6366584
RESTAURANT LE PASSE TEMPS GUERCHAIS;Restaurant traditionnel;14 Place du Champ de Foire;35130 LA GUERCHE DE BRETAGNE;-1.2335382;47.9422711
RESTAURANT LE PAVILLON;Restaurant traditionnel;7 Place Saint-Michel;35000 RENNES;-1.6815585;48.1136207
RESTAURANT LE PETIT BOUCHON;Restaurant traditionnel;37 RUE DU PETIT RACHAPT;35500 VITRE;-1.2181013;48.1302704
RESTAURANT LE PETIT CREPIER;Restaurant de spécialités;6 Rue Sainte-Barbe;35400 ST MALO;-2.0235706;48.6495996
RESTAURANT LE PETIT PRESSOIR;Restaurant traditionnel;20 rue de Paris;35500 Vitre;-1.207188;48.1245268
RESTAURANT LE PETIT ST LU;Restaurant traditionnel;91 Boulevard du General de Gaulle;35800 ST LUNAIRE;-2.1079169;48.6362786
RESTAURANT LE PICHET;Restaurant traditionnel;17 BOULEVARD DE LAVAL;35500 VITRE;-1.2011387638063;48.123866419932
RESTAURANT LE PIGEON BLANC;Restaurant traditionnel;Lieu Dit le Bourg;35210 COMBOURTILLE;-1.245251;48.272635
RESTAURANT LE POINT G;Restaurant traditionnel;51 rue de Saint-Malo;35120 St Broladre;-1.6579686;48.5887366
RESTAURANT LE POISSON ROUGE;Restaurant traditionnel;1 Place de la Chapelle;35260 CANCALE;-1.8529323;48.6711282
RESTAURANT LE PONT DU SECRET;Restaurant traditionnel;;35380 Paimpont;-2.174058;48.019561
RESTAURANT LE PORCHE AU PAIN;Restaurant traditionnel;1 rue Ceinte;35120 Dol De Bretagne;-1.7536747;48.5505376
RESTAURANT LE POT DE BEURRE;Restaurant traditionnel;2 Place Ponthual;35800 ST LUNAIRE;-2.1076221;48.633714
RESTAURANT LE PRESENT TÊTU;Snack (sur place);29 Grande Rue;35430 ST JOUAN DES GUERETS;-1.9743979;48.6005879
RESTAURANT LE REFUGE;Restaurant traditionnel;6 rue de la Poste;35120 St Broladre;-1.6570324;48.5864399
RESTAURANT LE REFUGE;Restaurant traditionnel;30 RUE ANTOINE CHATEL;35131 CHARTRES DE BRETAGNE;-1.6993475;48.0413097
RESTAURANT LE RELAIS;Restaurant traditionnel;12 Rue de Dinard;35730 PLEURTUIT;-2.0587755;48.5802143
RESTAURANT LE RELAIS DE BELLE LANDE;Restaurant traditionnel;23 B rue de Rennes;35120 Dol De Bretagne;-1.7485292;48.5464643
RESTAURANT LE RELAIS DE L'HERMINE;Restaurant traditionnel;35 RUE DE BROCELIANDE;35290 MUEL;-2.1584719643372;48.127145731058
RESTAURANT LE RELAIS DE TOURNEBRIDE;Restaurant de spécialités;134 AVENUE DU GENERAL LECLERC;35700 RENNES;-1.6368839475446;48.114017434359
RESTAURANT LE RELAIS MALOUIN;Restaurant traditionnel;17 RUE DU CAS ROUGE;35430 CHATEAUNEUF ILLE VILAINE;-1.9306790929996;48.559951418
RESTAURANT LE ROYAL DE VITRÉ;Restaurant de spécialités;11 avenue d Helmstedt;35500 VITRE;-1.1887941;48.1168498
RESTAURANT LE RUSTIQUE;Restaurant de spécialités;;35610 St Georges De Grehaigne;-1.548324;48.568117
RESTAURANT LE RUSTY;Restaurant traditionnel;27 RUE DU PORT HUE;35800 ST BRIAC SUR MER;-2.1416622;48.6275747
RESTAURANT LE SADI 2;Restaurant traditionnel;11 Rue Sadi Carnot;35800 DINARD;-2.0577665;48.6340047
RESTAURANT LE SADI CARNOT;Restaurant traditionnel;14 Rue de Saint-Enogat;35800 DINARD;-2.0577915;48.6339891
RESTAURANT LE SAINT ENOGAT;Restaurant traditionnel;2 Rue des Vergers;35800 DINARD;-2.0677679;48.6358468
RESTAURANT LE SAINT GEORGES;Restaurant traditionnel;Bas Saint-Georges;35610 ST GEORGES DE GREHAIGNE;-1.545191;48.569846
RESTAURANT LE SAINT HILAIRE;Restaurant traditionnel;4 Rue de Rennes;35590 L HERMITAGE;-1.817087;48.1254691
RESTAURANT LE SAINT LEONARD;Restaurant traditionnel;20 rue Nationale;35300 FOUGERES;-1.2039122;48.3534565
RESTAURANT LE SAINT Ô;Restaurant traditionnel;;35290 ST ONEN LA CHAPELLE;-2.172861;48.177103
RESTAURANT LE SALICORNE;Restaurant traditionnel;16 Rue de Paris;35500 VITRE;-1.2073891;48.124452
RESTAURANT LE STRASS;Restaurant traditionnel;37 BOULEVARD JEAN MERMOZ;35136 ST JACQUES DE LA LANDE;-1.6929641580588;48.096206057447
RESTAURANT LE SURCOUF;Restaurant traditionnel;10 Quai de Brest;35600 REDON;-2.0863369;47.6488765
RESTAURANT LE TALAMARA;Restaurant de spécialités;4 Rue Roger Vercel;35400 ST MALO;-2.0116271;48.6531911
RESTAURANT LE THEILLAIS;Restaurant traditionnel;22 R Amand de Léon des Ormeaux;35240 LE THEIL DE BRETAGNE;-1.4298814;47.9195035
RESTAURANT LE TY BREIZ;Restaurant traditionnel;13 QUAI GAMBETTA;35260 CANCALE;-1.8543677164868;48.671129336113
RESTAURANT LE TY PIZZA;Restaurant de spécialités;33 Place de l Eglise;35230 ST ERBLON;-1.6524609;48.0198338
RESTAURANT LE YACHT CLUB;Restaurant traditionnel;QUAI BAJOYER;35400 ST MALO;-2.0209468314921;48.649816199544
RESTAURANT LE YAMOUNA;Restaurant traditionnel;16 Rue de Robien;35000 RENNES;-1.6776354;48.1170219
RESTAURANT LEON LE COCHON;Restaurant traditionnel;1 rue Maréchal Joffre;35000 Rennes;-1.6777339;48.1095263
RESTAURANT LES 4 VENTS;Restaurant traditionnel;1 rue de Rennes;35470 Bain De Bretagne;-1.681573;47.843133
RESTAURANT LES 4 VENTS;Restaurant de spécialités;16 RUE D ALETH;35350 LA GOUESNIERE;-1.8996402310578;48.604874427145
RESTAURANT LES ARTS DINENT;Restaurant traditionnel;13 grand rue de la Poste;35350 St Coulomb;-1.9102851;48.6745886
RESTAURANT LES BROCANTEURS;Restaurant traditionnel;2 PLACE DU CALVAIRE;35000 RENNES;-1.6809787;48.1109343
RESTAURANT LES BROCANTEURS;Restaurant traditionnel;2 PLACE DU CALVAIRE;35000 RENNES;-1.6810423112701;48.110946463789
RESTAURANT LES CEDRES;Restaurant de spécialités;22 rue Saint-Malo;35000 Rennes;-1.680777;48.1161311
RESTAURANT LES COCOTTES NOIRES;Restaurant traditionnel;12 RUE SAINT PIERRE;35150 JANZE;-1.4983655359996;47.960021498
RESTAURANT LES DELICES D ASIE;Restaurant de spécialités;119 Avenue Gros Malhon;35000 RENNES;-1.6861148;48.1334895
RESTAURANT LES FLOTS GOURMANDS;Restaurant traditionnel;57 Chaussée du Sillon;35400 ST MALO;-2.0050675;48.6555977
RESTAURANT LES FORGES DE PAIMPONT;Restaurant traditionnel;les Forges;35380 Plelan Le Grand;-2.137486;47.994106
RESTAURANT LES HORTENSIAS;Restaurant traditionnel;Haute Forêt;35310 BREAL SOUS MONTFORT;-1.858421;48.069258
RESTAURANT LES JARDINS DE GREGOIRE;Brasserie;Centre Alphasis;35760 ST GREGOIRE;-1.6973381;48.1541691
RESTAURANT LES P'TITS POTES;Restaurant traditionnel;34 B RUE VASSELOT;35000 RENNES;-1.6769147164868;48.108547707744
RESTAURANT LES PIEDS SOUS LA TABLE;Restaurant traditionnel;93 Rue Nationale;35190 ST DOMINEUC;-1.8793094;48.3782597
RESTAURANT LES QUATRE VENTS;Restaurant traditionnel;;35600 BAINS SUR OUST;-2.07174;47.705444
RESTAURANT LES RELAIS D'ALSACE;Restaurant de spécialités;RUE DES ILES KERGUELEN;35760 ST GREGOIRE;-1.6983292759184;48.151863681201
RESTAURANT LES SABLINES;Restaurant traditionnel;les Rigniaux;35170 Bruz;-1.7553723;48.0628133
RESTAURANT LES SALES MÔMES;Restaurant traditionnel;16 RUE NANTAISE;35000 RENNES;-1.6855413949449;48.111781557591
RESTAURANT LES VOYAGEURS;Restaurant traditionnel;10 place Gambetta;35300 Fougeres;-1.2013544;48.3550897
RESTAURANT LÉON LE COCHON CAFÉ;Restaurant traditionnel;Rue de l' Etang au Diable;35760 ST GREGOIRE;-1.6858987;48.1385614
RESTAURANT MAC DONALD'S;Fast-food;ZAC Cap Malo;35520 LA MEZIERE;-1.731028;48.202643
RESTAURANT MAC DONALD'S;Fast-food;la Bretonniere;35770 VERN SUR SEICHE;-1.6206100418109;48.060478906027
RESTAURANT MARIE THE CUISINE;Restaurant traditionnel;3 RUE GOUIN DE BEAUCHESNE;35400 ST MALO;-2.0265182864274;48.648973368861
RESTAURANT MARIUS;Restaurant traditionnel;1 avenue Roger Dodin;35136 ST JACQUES DE LA LANDE;-1.705942;48.0889876
RESTAURANT MARMITE DU SACA-SACA;Restaurant traditionnel;10 Rue Derval;35000 RENNES;-1.6767308;48.1117741
RESTAURANT MC DONALD'S;Fast-food;avenue du Général de Gaulle;35400 St Malo;-2.0556153;48.6274204
RESTAURANT MC DONALD'S;Fast-food;318 route de Saint-Malo;35000 Rennes;-1.680894;48.1109111
RESTAURANT MC DONALD'S;Fast-food;route d Ernée;35300 Fougeres;-1.1822393;48.3456358
RESTAURANT MC DONALD'S;Fast-food;Forum de la Tremoille;35500 Vitre;-1.21543;48.124746
RESTAURANT MC DONALD'S;Fast-food;rue du Bosphore;35200 Rennes;-1.6768353;48.0839735
RESTAURANT MC DONALD'S;Fast-food;PARC D ACTIVITES DU COTARD;35600 REDON;-2.0844099999999;47.67815
RESTAURANT MC DONALD'S;Fast-food;CENTRE COMMERCIAL COLOMBIA;35000 RENNES;-1.6806500794902;48.103870022217
RESTAURANT MC DONALD'S;Fast-food;104 rue de Saint-Brieuc;35000 Rennes;-1.7084447;48.1158994
RESTAURANT MC DONALD'S;Fast-food;288 rue de Fougères;35700 Rennes;-1.6523207;48.127191
RESTAURANT MC DONALD'S;Fast-food;1 RUE DU DOMAINE;35310 BREAL SOUS MONTFORT;-1.8806800341336;48.059115904524
RESTAURANT MC DONALD'S;Fast-food;Route Départementale 266;35730 PLEURTUIT;-2.059156;48.57962
RESTAURANT MC DONALD'S;Fast-food;avenue des Français Libres;35430 St Jouan Des Guerets;-1.972348;48.5990279
RESTAURANT MC DONALD'S;Fast-food;Zone Artisanale d Olivet;35530 Servon Sur Vilaine;-1.460064;48.1028779
RESTAURANT MC DONALD'S;Fast-food;ZAC de la Giraudais;35740 Pace;-1.7681536;48.1411656
RESTAURANT MC DONALD'S;Fast-food;Ker Lann;35170 BRUZ;-1.7402771;48.0508986
RESTAURANT MC DONALD'S;Fast-food;CENTRE CIAL DU BEAUGE;35340 LIFFRE;-1.49198;48.22126
RESTAURANT MC DONALD'S;Fast-food;49 B rue de Rennes;35510 Cesson Sevigne;-1.6173128;48.1140716
RESTAURANT MC DONALDS;Fast-food;8 rue Galilée;35137 Pleumeleuc;-1.9192531;48.1761233
RESTAURANT MCDONALD'S;Fast-food;1 Rue des Estuaires;35470 BAIN DE BRETAGNE;-1.6924033;47.8330495
RESTAURANT MIESCH;Restaurant traditionnel;Lieu Dit Graibusson;35150 CORPS NUDS;-1.591377;47.991027
RESTAURANT MONSIEUR YAK;Restaurant traditionnel;10 RUE DE LA CHALOTAIS;35000 RENNES;-1.681516;48.1094174
RESTAURANT MOULIN A PIZZAS;Restaurant de spécialités;19 Quai des Bateliers;35480 GUIPRY;-1.8233012;47.8225037
RESTAURANT NOTA BENE;Restaurant traditionnel;7 RUE DE RENNES;35510 CESSON SEVIGNE;-1.6110249;48.1139591
RESTAURANT O SOLÉIOU;Restaurant de spécialités;24 RUE DE RENNES;35520 MELESSE;-1.6973926;48.2154273
RESTAURANT O THE GOURMAND;Restaurant traditionnel;41 RUE VASSELOT;35000 RENNES;-1.6768578090484;48.108599266721
RESTAURANT PANS'PIZZA;Snack (sur place);10 Rue de Coulon;35160 MONTFORT SUR MEU;-1.9559993;48.1355939
RESTAURANT PARIS CANCALE;Restaurant traditionnel;2 Rue Victor Hugo;35260 CANCALE;-1.8566593;48.6703368
RESTAURANT PARIS- NEW YORK;Restaurant gastronomique;276 RUE DE FOUGERES;35700 RENNES;-1.6462073089042;48.128770897022
RESTAURANT PATATES ET CIE;Restaurant de spécialités;5 QUAI JEAN BART;35600 REDON;-2.0872118510878;47.647424818483
RESTAURANT PEPPERONI PIZZARIA;Snack (sur place);1 Rue Joseph Tronchot;35460 ST BRICE EN COGLES;-1.3658671;48.4104927
RESTAURANT PIQUE PRUNE;Restaurant de spécialités;132 RUE EUGENE POTTIER;35000 RENNES;-1.7130004059996;48.102367362001
RESTAURANT PIQUE PRUNE;Restaurant de spécialités;8 RUE DE LA CERISAIE;35760 ST GREGOIRE;-1.6906805349996;48.138371628
RESTAURANT PIQUE PRUNE;Restaurant de spécialités;8 AVENUE DES PEUPLIERS;35510 CESSON SEVIGNE;-1.6069969369996;48.113265961
RESTAURANT PIZZA DEL ARTE;Restaurant de spécialités;10 RUE YVONNE JEAN HAFFEN;35000 RENNES;-1.675088;48.105674
RESTAURANT PIZZA PLAZZA;Restaurant de spécialités;239 Rue de Nantes;35200 RENNES;-1.6897317;48.0955514
RESTAURANT PIZZA SUD;Restaurant de spécialités;C CIAL GRAND QUARTIER;35760 ST GREGOIRE;-1.6930599366672;48.136139961626
RESTAURANT PIZZERIA DEL ARTE;Restaurant de spécialités;RUE DES ILES KERGUELEN;35760 ST GREGOIRE;-1.6983292759184;48.151863681201
RESTAURANT PIZZERIA LA STRADA;Restaurant traditionnel;13 RUE DU CENTRE;35590 ST GILLES;-1.8296446007559;48.154480658895
RESTAURANT PIZZERIA MAGERO;Restaurant traditionnel;29 AVENUE LOUIS BARTHOU;35000 RENNES;-1.6714282509996;48.10491251
RESTAURANT PLACE AUX CRÊPES;Restaurant traditionnel;3/5 PLACE NOTRE DAME;35500 VITRE;-1.2125019970858;48.124972529286
RESTAURANT PRAYLUD;Restaurant traditionnel;12 Rue Notre-Dame;35600 REDON;-2.083601;47.6523847
RESTAURANT QUATRE B;Restaurant traditionnel;4 PLACE DE BRETAGNE;35000 RENNES;-1.6845610819996;48.10926993
RESTAURANT QUICK;Fast-food;IMPASSE DES HAUTES FUTAIES;35400 ST MALO;-1.9903561262685;48.623353422151
RESTAURANT RAJ MAHAL;Restaurant de spécialités;70 Rue de la Pinterie;35300 FOUGERES;-1.2064212;48.3548436
RESTAURANT RAOUL2;Restaurant traditionnel;3 Place Raoul II;35300 FOUGERES;-1.2085074;48.3547567
RESTAURANT RELAIS DES DILIGENCES;Restaurant traditionnel;2 place de l Eglise;35380 Plelan Le Grand;-2.1010347;48.0018985
RESTAURANT RELAIS DES ONZE ECLUSES;Restaurant traditionnel;ZA la Morandais;35190 Tinteniac;-1.8161091;48.3016725
RESTAURANT RELAIS DU BOIS DE SOEUVRES;Restaurant traditionnel;ZA de la Hallerais;35770 Vern Sur Seiche;-1.6105089;48.0602799
RESTAURANT ROYAL HERMITALE;Restaurant traditionnel;5 RUE DE L HERMITAGE;35780 LA RICHARDAIS;-2.0569135407991;48.609388233258
RESTAURANT SAVEUR CELTIK;Restaurant traditionnel;192 RUE DE FOUGERES;35700 RENNES;-1.6568274343586;48.124983855675
RESTAURANT SAVEUR D'ASIE;Restaurant de spécialités;5 Rue Beaumanoir;35600 REDON;-2.0848928;47.6493586
RESTAURANT SAVEURS D'ASIE;Restaurant traditionnel;6 Rue de Loheac;35470 BAIN DE BRETAGNE;-1.6811164;47.8419919
RESTAURANT SAVEURS DE BRAISES;Restaurant traditionnel;1 RUE DU PASSAVENT;35770 VERN SUR SEICHE;-1.6261458003058;48.061379682209
RESTAURANT SIAM;Restaurant traditionnel;1 Rue des Carmes;35000 RENNES;-1.6760945;48.1083872
RESTAURANT SIAM;Restaurant traditionnel;1 Rue des Carmes;35000 RENNES;-1.6760945;48.1083872
RESTAURANT SOGOOD CAFE;Snack (sur place);ALLEE DE GUERLEDAN;35135 CHANTEPIE;-1.6333364465292;48.084343575985
RESTAURANT SUBWAY;Snack (sur place);2 Rue Tronjolly;35000 RENNES;-1.6804306;48.1073947
RESTAURANT SUBWAY;Snack (sur place);15 BOULEVARD DE L YSER;35200 RENNES;-1.673148719401;48.091969791563
RESTAURANT SUBWAY;Restaurant traditionnel;25 CRS PDT J F KENNEDY;35000 RENNES;-1.708902;48.12144745268
RESTAURANT SUBWAY;Restaurant traditionnel;16 PLACE DU COLOMBIER;35000 RENNES;-1.6787431614057;48.10513759839
RESTAURANT SUBWAY;Fast-food;1 Place Sainte-Anne;35000 RENNES;-1.6795189;48.1144724
RESTAURANT TARTINE ET MOI;Restaurant de spécialités;3 Rue des Orbettes;35400 ST MALO;-2.02412;48.6495002
RESTAURANT TERRE ET MER;Restaurant traditionnel;la Secouette;35350 St Coulomb;-1.9412118;48.6675282
RESTAURANT TOUT LE MONDE EN PARLE;Restaurant traditionnel;36 Boulevard Maréchal Leclerc;35460 ST BRICE EN COGLES;-1.365536;48.411428
RESTAURANT UNE AFFAIRE DE GOUT;Restaurant traditionnel;2 Rue des Vieux Ponts;35510 CESSON SEVIGNE;-1.6023008;48.114537
RESTAURANT VENTS D OUEST;Restaurant traditionnel;5 Rue du Puits aux Braies;35400 ST MALO;-2.0245543;48.6487771
RESTAURANT VENTS ET MAREES;Restaurant traditionnel;66 boulevard Albert Lacroix;35800 Dinard;-2.0676726;48.6363365
RESTAURANT VENTS ET MAREES;Brasserie;66 BOULEVARD ALBERT LACROIX;35800 DINARD;-2.067732;48.636323434359
RESTAURANT VILLA MODENA;Restaurant traditionnel;54 Rue de Rennes;35830 BETTON;-1.639985;48.1749442
RESTAURANT VOILES ET VAPEURS;Restaurant traditionnel;2 RUE JACQUES CARTIER;35400 ST MALO;-2.0238353170985;48.649252924231
RESTAURANT VUE MER;Restaurant traditionnel;Gare Maritime de la Bourse;35400 ST MALO;-1.9815769;48.6319149
RESTAURANT ZEST;Restaurant traditionnel;32 COURS DE LA VILAINE;35510 CESSON SEVIGNE;-1.6070632857349;48.115623363033
RESTAURANT ZOLIBATO;Restaurant traditionnel;4 RUE JACQUES CARTIER;35400 ST MALO;-2.0238368098851;48.649260865947
RESTAURANT ZORBA LE GREC;Restaurant de spécialités;11 RUE SAINT GEORGES;35000 RENNES;-1.6765454;48.11181
RESTAURANTCANADIAN STEAK HOUSE;Restaurant traditionnel;1Avenue de la Touche;35740 PACE;-1.7646439688611;48.140518691063
RESTAURANTCANADIAN STEAK HOUSE;Restaurant traditionnel;AV DU PHARE DU GRAND JARDIN;35520 LA MEZIERE;-1.7296880601684;48.201594311205
ROYAL FOUGERES;Restaurant traditionnel;LA PILAIS;35133 LECOUSSE;-1.2389969;48.3570097
SAINT SERVAN;Brasserie;25 RUE MADAME DES BAS SABLONS;35400 ST MALO;-1.9840728409603;48.648353867332
SALAMANDRE COTTAGE;Chambre d'hôtes;8, LE BOIS PERTUIT;35800 ST BRIAC SUR MER;-2.1334899209996;48.619509847
SARL 10 PSTA;Restaurant traditionnel;10 PLACE SAINTE ANNE;35000 RENNES;-1.6804016129996;48.114101207
SARL CAFE SIMON;Brasserie;2 RUE JACQUES CARTIER;35400 ST MALO;-2.0238327499996;48.649256794001
SARL DENOUAL;Restaurant traditionnel;5 RUE DE GAEL;35750 IFFENDIC;-2.034406121011;48.128790572855
SARL JUSALEXELE;Brasserie;8 rue de dinan;35400 ST MALO;-2.0265375769996;48.646868389
SARL LE GRAND LARGE LE DAMIER;Brasserie;9 PLACE SAINTE ANNE;35000 RENNES;-1.6801741;48.1141163
SARL LE MAJESTIC;Restaurant traditionnel;1 PLACE GUY LA CHAMBRE;35400 ST MALO;-2.0231877899996;48.650232492
SARL LES PIEDS DANS L'EAU 2;Restaurant traditionnel;1 RUE EUGENE ET AUGUSTE FEYEN;35260 CANCALE;-1.8500795649996;48.700818291
SARL LETYANI;Restaurant de spécialités;58 RUE DE LA POTERIE;35131 CHARTRES DE BRETAGNE;-1.7033496232327;48.041608075769
SARL LUCAS 5;Restaurant traditionnel;40 ROUTE DES EAUX;35500 VITRE;-1.1863016039996;48.114122927
SARL MAINGUY CHALME;Restaurant traditionnel;296 Rue de Nantes;35136 ST JACQUES DE LA LANDE;-1.6941747726931;48.087997323619
SARL QUARTIER BURGER;Fast-food;ROUTE DE SAINT-MALO;35760 ST GREGOIRE;-1.7166469173302;48.167031688571
SARL TUK TUK MUM;Restaurant de spécialités;259 RUE DE CHATEAUGIRON;35000 RENNES;-1.6325511969996;48.093506790001
SAS LE PONT D'ANJOU;Restaurant traditionnel;11 FAUBOURG D ANJOU;35130 LA GUERCHE DE BRETAGNE;-1.2276151455653;47.940919470166
SNACK CÔTÉ PLAGE;Snack (sur place);Plage de l' Ecluse;35800 DINARD;-2.0567901;48.6371646
SNACK DE LA TOUESSE;Snack (sur place);Camping de la Touesse;35780 La Richardais;-2.03436;48.606702
SNACK DU CAMPING LA VILLE MAUNY;Snack (sur place);Rue de la Ville Mauny;35800 DINARD;-2.073233;48.619311
SNACK LA GRIGNOTERIE;Snack (sur place);PLAGE DE L ECLUSE;35800 DINARD;-2.0542799999999;48.6356
SNACK LE NABUCHODONOSOR;Snack (sur place);12 rue Hoche;35000 Rennes;-1.6772611;48.1132361
SNACK LE P'TIT ZINC;Snack (sur place);8 Place de la Chapelle;35260 CANCALE;-1.8531208;48.6712134
SNACK PIQUE PRUNE;Restaurant de spécialités;25 RUE JULES SIMON;35000 RENNES;-1.6790589229996;48.107641564
SOLIDOR;Restaurant traditionnel;7 esplanade du Commandant Menguy;35400 ST MALO;-2.0229852;48.6353511
SPEED BURGER;Fast-food;69 BOULEVARD DE LA TOUR D AUVERGNE;35000 RENNES;-1.6842589749996;48.102661576
SPEED BURGER;Fast-food;233 RUE DE FOUGERES;35700 RENNES;-1.6570023819996;48.124955984001
SPEED BURGER SAINT MALO;Fast-food;53 BOULEVARD DES TALARDS;35400 ST MALO;-2.0084985419996;48.643318177
SPEED RABBIT;Restaurant de spécialités;65 AVENUE ANDRE BONNIN;35135 CHANTEPIE;-1.6195433569996;48.08853708
STEF JEAN REBOIT UNE;Brasserie;5 Rue Saint Guillaume;35730 PLEURTUIT;-2.0584629;48.5795954
SUBWAY;Snack (sur place);44 RUE NOTRE DAME;35600 REDON;-2.0839598906457;47.653582945323
SUBWAY;Fast-food;1 Place Sainte-Anne;35000 RENNES;-1.6795189;48.1144724
SUBWAY;Fast-food;10 rue Baudrairie;35000 RENNES;-1.6785453;48.1105421
SUBWAY;Fast-food;2 RUE TRONJOLLY;35000 RENNES;-1.6806144;48.1072986
SUBWAY;Fast-food;9 CHEMIN DU BAS LAUNAY;35170 BRUZ;-1.757869522621;48.02276264141
SUR LE POUCE;Fast-food;3 RUE NOTRE DAME;35270 COMBOURG;-1.7510053679996;48.409193223
TABLAPIZZA;Restaurant de spécialités;52 AVENUE DU CANADA;35200 RENNES;-1.6825999602175;48.082519234565
TAJ MAHAL;Restaurant traditionnel;70 rue de la Pinterie;35300 FOUGERES;-1.2064212;48.3548436
TANTE ALICE;Brasserie;rue du bosphore;35200 RENNES;-1.6768353;48.0839735
TARATATA;Restaurant traditionnel;7 BOULEVARD WILSON;35800 DINARD;-2.0529045;48.6350248
THE LIBERTY RESTAURANT;Restaurant traditionnel;10 Rue de la Libération;35290 GAEL;-2.2217432;48.1321682
THE PENNY LANE PUB;Brasserie;1 RUE DE COETQUEN;35000 RENNES;-1.6786628381903;48.111006478216
TIZEN;Restaurant de spécialités;allee morvan lebesque;35700 RENNES;-1.6336457;48.1305944
TOUT LE MONDE EN PARLE;Restaurant traditionnel;36 BOULEVARD DU GENERAL LECLERC;35460 ST BRICE EN COGLES;-1.3688928753823;48.407240849847
TY BREIZ RAPHCA;Restaurant traditionnel;13 QUAI GAMBETTA;35260 CANCALE;-1.8543677164868;48.671129336113
TY SKORN CREPERIE;Restaurant traditionnel;4 Place de la Chapelle;35260 CANCALE;-1.8529459;48.6712454
UMUT KEBAB;Snack (sur place);3 Place Albert Parent;35270 COMBOURG;-1.7510861;48.4092348
UMUT KEBAB;Snack (sur place);20 GRANDE RUE DES STUARTS;35120 DOL DE BRETAGNE;-1.7543273258411;48.549757368861
UN AIR DE FAMILLE;Restaurant de spécialités;7 RUE DE NEMOURS;35000 RENNES;-1.6801104503145;48.108726785735
UN CAFE DES POSSIBLES;Restaurant traditionnel;9 PLACE FRANCOIS DUINE;35440 GUIPEL;-1.7162149999999;48.32156
VILLA D'OR;Restaurant traditionnel;4 Rue des Chenes;35760 MONTGERMONT;-1.7068619;48.1528112
VILLA D'OR;Restaurant traditionnel;4 RUE DES CHENES;35760 MONTGERMONT;-1.7077173729996;48.152949354
VILLA KER KOUETTE;Chambre d'hôtes;48 rue de la ville Mauny;35800 DINARD;-2.0725626785661;48.62383316107
WEST BOWLING;Bowling (entrée et pratique de);LES VILLES BILLY;35780 LA RICHARDAIS;-2.0493382173546;48.612416060877
WHITEFIELDS CAFE;Restaurant traditionnel;1137 C AVENUE DES CHAMPS BLANCS;35510 CESSON SEVIGNE;-1.6194031589995;48.134287602
WOK 35;Restaurant traditionnel;1 RUE DE BRIANGAUD;35600 REDON;-2.0719608014941;47.666685301494
WOK RESTAURANT;Restaurant de spécialités;301 RUE DE FOUGERES;35700 RENNES;-1.6425698515205;48.129789121299
ZOZAN KEBAB;Restaurant traditionnel;4 PLACE GAMBETTA;35300 FOUGERES;-1.2012672172949;48.354712911449
la demeure d'isaure;Chambre d'hôtes;1 Rue de Saint-Ouen;35560 ANTRAIN;-1.4791127;48.4628134
